{"version": 0.6, "generator": "Overpass API 0.7.60.2 e4cf9f7a", "osm3s": {"timestamp_osm_base": "2023-04-30T00:50:52Z", "copyright": "The data included in this document is from www.openstreetmap.org. The data is made available under ODbL."}, "elements": [{"type": "node", "id": 294004769, "lat": 53.0964181, "lon": 8.7859583, "tags": {"addr:city": "Bremen", "addr:housenumber": "19", "addr:postcode": "28217", "addr:street": "Vegesacker Stra\u00dfe", "amenity": "restaurant", "cuisine": "persian", "name": "Almaz", "opening_hours": "Tu-Th, Su 12:00-21:00; Fr, Sa 12:00-23:00", "wheelchair": "limited"}}, {"type": "node", "id": 294004782, "lat": 53.0969467, "lon": 8.7854544, "tags": {"addr:city": "Bremen", "addr:housenumber": "41", "addr:postcode": "28217", "addr:street": "Vegesacker Stra\u00dfe", "amenity": "restaurant", "cuisine": "indian", "delivery": "no", "name": "Muru's Curry", "opening_hours": "Mo-Th, Su 16:30-23:00; Fr, Sa 16:30-00:00", "phone": "+49 421 392400", "smoking": "outside", "takeaway": "yes", "website": "http://www.elsol-walle.de/", "wheelchair": "no"}}, {"type": "node", "id": 294100261, "lat": 53.0987072, "lon": 8.7884487, "tags": {"amenity": "restaurant", "indoor_seating": "yes", "name": "Renaissance", "opening_hours": "Mo-Fr 12:00-15:00,18:00-23:00; Sa,Su 17:00-23:00", "outdoor_seating": "no", "wheelchair": "limited"}}, {"type": "node", "id": 294100278, "lat": 53.0922081, "lon": 8.7901838, "tags": {"addr:city": "Bremen", "addr:country": "DE", "addr:housenumber": "8", "addr:postcode": "28217", "addr:street": "Wartburgstra\u00dfe", "amenity": "restaurant", "cuisine": "italian", "indoor_seating": "yes", "name": "Da Rocco", "opening_hours": "Tu-Fr 12:00-14:30,18:00-23:00; Sa,Su 18:00-23:00", "outdoor_seating": "yes", "phone": "+49 421 3961988", "smoking": "outside", "website": "http://darocco-bremen.de/", "wheelchair": "limited"}}, {"type": "node", "id": 4005657456, "lat": 53.0965683, "lon": 8.7853347, "tags": {"addr:city": "Bremen", "addr:postcode": "28217", "amenity": "restaurant", "contact:facebook": "https://www.facebook.com/Laviebremen/", "contact:phone": "+49 421 89782306", "cuisine": "sandwich", "name": "La vie", "opening_hours": "Mo-Fr 10:00-22:00", "wheelchair": "yes"}}, {"type": "node", "id": 7146826778, "lat": 53.0962379, "lon": 8.7840119, "tags": {"amenity": "restaurant", "cuisine": "african", "diet:vegetarian": "yes", "name": "Mataa's", "opening_hours": "Tu-Fr 12:00-15:00, 17:00-22:00; Sa,Su 17:00-22:00", "wheelchair": "no"}}, {"type": "node", "id": 8907998250, "lat": 53.0959153, "lon": 8.7859673, "tags": {"addr:city": "Bremen", "addr:country": "DE", "addr:housenumber": "14-18", "addr:postcode": "28217", "addr:street": "Vegesacker Stra\u00dfe", "amenity": "restaurant", "contact:phone": "+49 421 79436171", "contact:website": "http://www.renoir-bremen.net/walle/home.html", "diet:vegan": "yes", "diet:vegetarian": "yes", "name": "Renoir", "opening_hours": "Mo-Fr 12:00-23:00; Sa 17:00-23:00; Su 16:00-22:00", "wheelchair": "yes"}}, {"type": "node", "id": 9509495596, "lat": 53.0919137, "lon": 8.7911181, "tags": {"amenity": "restaurant", "contact:mobile": "+49 176 20502793", "name": "Bait Jeddi"}}, {"type": "node", "id": 9981710126, "lat": 53.0959762, "lon": 8.7858261, "tags": {"amenity": "restaurant", "cuisine": "balkan", "name": "Balkan Grill", "opening_hours": "Mo-Th 11:00-22:00; Fr, Sa 11:00-23:00; Su 11:00-22:00", "outdoor_seating": "yes"}}]}