{"version": 0.6, "generator": "Overpass API 0.7.60 f4c14d41", "osm3s": {"timestamp_osm_base": "2023-04-30T07:56:22Z", "copyright": "The data included in this document is from www.openstreetmap.org. The data is made available under ODbL."}, "elements": [{"type": "node", "id": 248750685, "lat": 51.0543868, "lon": 13.7371186, "tags": {"addr:city": "Dresden", "addr:country": "DE", "addr:housenumber": "3", "addr:postcode": "01067", "addr:street": "Theaterplatz", "amenity": "restaurant", "entrance": "main", "name": "Italienisches D\u00f6rfchen", "website": "https://www.italienisches-doerfchen.com", "wheelchair": "no"}}, {"type": "node", "id": 248818339, "lat": 51.052067, "lon": 13.7455137}, {"type": "node", "id": 248818340, "lat": 51.0520043, "lon": 13.7454065}, {"type": "node", "id": 253342887, "lat": 51.053622, "lon": 13.7399343}, {"type": "node", "id": 253342888, "lat": 51.0536585, "lon": 13.739946}, {"type": "node", "id": 257554514, "lat": 51.0491285, "lon": 13.7406093, "tags": {"addr:city": "Dresden", "addr:country": "DE", "addr:housenumber": "4", "addr:postcode": "01067", "addr:street": "Wei\u00dfe Gasse", "amenity": "restaurant", "contact:facebook": "https://www.facebook.com/SteakRoyal", "cuisine": "american", "name": "Steak Royal", "opening_hours": "PH,Mo-Su 11:00-20:00+", "phone": "+49 351 4852580", "smoking": "separated", "website": "https://www.steak-royal.de/", "wheelchair": "no"}}, {"type": "node", "id": 257554576, "lat": 51.0488463, "lon": 13.7403252, "tags": {"addr:city": "Dresden", "addr:country": "DE", "addr:housenumber": "2", "addr:postcode": "01067", "addr:street": "Wei\u00dfe Gasse", "amenity": "restaurant", "contact:facebook": "https://www.facebook.com/rauschenbach.deli", "cuisine": "german;pasta", "diet:vegetarian": "yes", "email": "info@rauschenbach-deli.de", "fax": "+49 351 8026503", "indoor_seating": "yes", "internet_access": "wlan", "name": "rauschenbach deli", "opening_hours": "We-Fr 09:00-18:00; Sa,Su 10:00-18:00", "operator": "ESSBAR Catering & Eventmangement GmbH", "outdoor_seating": "yes", "payment:account_cards": "yes", "payment:credit_cards": "yes", "phone": "+49 351 82 12 760", "smoking": "no", "toilets:wheelchair": "yes", "website": "https://www.rauschenbach-deli.de/", "wheelchair": "yes", "wheelchair:description:de": "Eingang mit Rampe"}}, {"type": "node", "id": 271301169, "lat": 51.05505, "lon": 13.7368026}, {"type": "node", "id": 271301170, "lat": 51.0550072, "lon": 13.7367022}, {"type": "node", "id": 271301171, "lat": 51.0549552, "lon": 13.7367786}, {"type": "node", "id": 271301172, "lat": 51.0549935, "lon": 13.7368656}, {"type": "node", "id": 271301475, "lat": 51.0546768, "lon": 13.7379655, "tags": {"amenity": "restaurant", "name": "Kahnaletto", "phone": "+49 351 4953037", "website": "http://www.kahnaletto.de/", "wheelchair": "limited"}}, {"type": "node", "id": 271303057, "lat": 51.0536994, "lon": 13.739661}, {"type": "node", "id": 307063172, "lat": 51.0489907, "lon": 13.7415188, "tags": {"addr:city": "Dresden", "addr:country": "DE", "addr:housenumber": "5", "addr:postcode": "01067", "addr:street": "Gewandhausstra\u00dfe", "amenity": "restaurant", "cuisine": "asian;chinese", "indoor_seating": "yes", "name": "Mandarin", "opening_hours": "Mo-Su 11:00-23:00", "outdoor_seating": "yes", "phone": "+49 351 4963193", "toilets:wheelchair": "yes", "website": "http://www.chinarestaurant-mandarin-dresden.de/", "wheelchair": "yes"}}, {"type": "node", "id": 320948919, "lat": 51.049096, "lon": 13.742339, "tags": {"addr:city": "Dresden", "addr:country": "DE", "addr:housenumber": "2", "addr:postcode": "01067", "addr:street": "Gewandhausstra\u00dfe", "amenity": "restaurant", "e-cigarette": "no", "name": "Ocakbasi Altstadt", "old_name": "SchnitzelGarten", "opening_hours": "Tu-Th,Su 11:00-23:00; Fr,Sa 11:00-24:00", "phone": "+49 351 20587875", "website": "https://www.ocakbasi-altstadt.com/", "wheelchair": "limited", "wheelchair:description:de": "Zugang zum Erdgeschoss m\u00f6glich, Rest unklar"}}, {"type": "node", "id": 332450469, "lat": 51.0490791, "lon": 13.7392296, "tags": {"addr:city": "Dresden", "addr:country": "DE", "addr:housenumber": "7", "addr:postcode": "01067", "addr:street": "Kreuzstra\u00dfe", "alt_name": "Caf\u00e9 aha + Weltladen", "amenity": "restaurant", "changing_table": "yes", "changing_table:location": "female_toilet", "cuisine": "regional;breakfast;soup;salad", "diet:halal": "yes", "diet:kosher": "no", "diet:vegan": "yes", "diet:vegetarian": "yes", "email": "aha@ladencafe.de", "fax": "+49 351 4960672", "highchair": "yes", "indoor_seating": "yes", "internet_access": "no", "name": "LadenCaf\u00e9 aha + Weltladen", "opening_hours": "Mo-Sa 09:00-22:00; Su 09:00-20:00", "operator": "LadenCaf\u00e9 aha GmbH", "organic": "yes", "outdoor_seating": "yes", "payment:girocard": "yes", "phone": "+49 351 4960673", "phone:shop": "+49 351 4960671", "smoking": "no", "toilets": "yes", "toilets:wheelchair": "yes", "weather_protection": "parasol", "website": "https://ladencafe.de", "website:menu": "https://ladencafe.de/restaurant/speisen-und-getraenke/", "wheelchair": "limited"}}, {"type": "node", "id": 344886606, "lat": 51.0511672, "lon": 13.7346927, "tags": {"addr:city": "Dresden", "addr:country": "DE", "addr:housenumber": "24", "addr:postcode": "01067", "addr:street": "Wilsdruffer Stra\u00dfe", "amenity": "restaurant", "capacity": "220", "contact:email": "kontakt@max-dresden.de", "contact:fax": "+49 351 48433879", "contact:phone": "+49 351 48433870", "cuisine": "mediterranean", "indoor_seating": "yes", "internet_access": "wlan", "internet_access:access": "customers", "internet_access:fee": "no", "level": "0;1", "name": "Max", "opening_hours": "Mo-Sa 08:00-24:00; Su 10:00-24:00", "outdoor_seating": "yes", "payment:mastercard": "yes", "toilets:disabled": "yes", "toilets:wheelchair": "yes", "website": "https://www.max-dresden.de/", "wheelchair": "yes"}}, {"type": "node", "id": 344886616, "lat": 51.0509626, "lon": 13.7351676, "tags": {"addr:city": "Dresden", "addr:country": "DE", "addr:housenumber": "22", "addr:postcode": "01067", "addr:street": "Wilsdruffer Stra\u00dfe", "amenity": "restaurant", "cuisine": "mexican;steak", "indoor_seating": "yes", "level": "0", "name": "El Rodizio", "opening_hours": "Mo-Sa 11:30-21:00, Su, PH 11:30-21:00", "outdoor_seating": "yes", "phone": "+49 351 4976884", "toilets:wheelchair": "no", "website": "https://www.elrodizio.de/", "wheelchair": "limited"}}, {"type": "node", "id": 365386577, "lat": 51.0522475, "lon": 13.7424847, "tags": {"addr:city": "Dresden", "addr:housenumber": "12", "addr:postcode": "01067", "addr:street": "An der Frauenkirche", "amenity": "restaurant", "contact:facebook": "https://www.facebook.com/PulverturmDresden", "contact:website": "https://pulverturm-dresden.de", "cuisine": "german;regional;coffee_shop;local", "diet:vegetarian": "yes", "internet_access": "wlan", "level": "-1", "name": "Pulverturm an der Frauenkirche", "opening_hours": "Mo-Th 17:00-22:00; Fr-Su 12:00-22:00", "toilets:wheelchair": "no", "wheelchair": "yes"}}, {"type": "node", "id": 373092447, "lat": 51.049057, "lon": 13.739983, "tags": {"addr:city": "Dresden", "addr:housenumber": "1", "addr:postcode": "01067", "addr:street": "Wei\u00dfe Gasse", "amenity": "restaurant", "check_date:opening_hours": "2023-02-24", "contact:facebook": "https://www.facebook.com/G%C3%A4nsedieb-128981500492895/", "cuisine": "german", "diet:vegetarian": "no", "indoor_seating": "yes", "internet_access": "wlan", "name": "G\u00e4nsedieb", "opening_hours": "Mo-Su 11:00+", "operator": "Mario Rensner", "outdoor_seating": "yes", "payment:credit_cards": "yes", "phone": "+49 351 4850905", "smoking": "no", "takeaway": "no", "toilets:wheelchair": "yes", "website": "https://www.gaensedieb.de/", "wheelchair": "yes", "wheelchair:description:de": "Toiletten offenbar im Obergeschoss"}}, {"type": "node", "id": 373092448, "lat": 51.0498012, "lon": 13.7398237, "tags": {"addr:city": "Dresden", "addr:housenumber": "17", "addr:postcode": "01067", "addr:street": "Wilsdruffer Stra\u00dfe", "amenity": "restaurant", "check_date:opening_hours": "2022-10-17", "cuisine": "sushi", "internet_access": "no", "name": "Sushi Lounge", "opening_hours": "Mo-Th 12:00-15:00,17:00-23:00; Fr-Su 12:00-23:00", "phone": "+49 351 4848988", "toilets:wheelchair": "no", "wheelchair": "no", "wheelchair:description:de": "Stufe am Eingang, Treppe zur Toilete"}}, {"type": "node", "id": 373092450, "lat": 51.0489921, "lon": 13.7405089, "tags": {"addr:city": "Dresden", "addr:country": "DE", "addr:housenumber": "4", "addr:postcode": "01067", "addr:street": "Wei\u00dfe Gasse", "amenity": "restaurant", "check_date:opening_hours": "2023-02-24", "cuisine": "vietnamese", "name": "Kinh Do", "opening_hours": "Mo-Su 11:00-23:00", "phone": "+49 351 2137624", "wheelchair": "limited"}}, {"type": "node", "id": 386116740, "lat": 51.0513934, "lon": 13.7364561, "tags": {"addr:city": "Dresden", "addr:housenumber": "1", "addr:postcode": "01067", "addr:street": "Kleine Br\u00fcdergasse", "amenity": "restaurant", "cuisine": "italian", "entrance": "main", "name": "Ristorante Enotria da Miri", "opening_hours": "11:30-24:00", "phone": "+49 351 49767646", "website": "http://www.enotriadamiri.de/"}}, {"type": "node", "id": 386117048, "lat": 51.047687, "lon": 13.738732, "tags": {"addr:city": "Dresden", "addr:housenumber": "17", "addr:postcode": "01067", "addr:street": "Dr.-K\u00fclz-Ring", "amenity": "restaurant", "check_date:opening_hours": "2023-04-09", "cuisine": "thai", "name": "Singha", "opening_hours": "Mo-Su 11:30-22:00", "outdoor_seating": "yes", "phone": "+49 351 852298", "wheelchair": "limited", "wheelchair:description:de": "Ebenerdiger Zugang, aber Toiletten im Kellergeschoss offenbar nur per Treppen zu erreichen."}}, {"type": "node", "id": 503866057, "lat": 51.0539063, "lon": 13.7340451, "tags": {"addr:city": "Dresden", "addr:country": "DE", "addr:housenumber": "1a", "addr:postcode": "01067", "addr:street": "Theaterplatz", "amenity": "restaurant", "biergarten": "yes", "cuisine": "international", "name": "Caf\u00e9 & Restaurant Alte Meister", "outdoor_seating": "yes", "phone": "+49 351 4810426", "website": "https://www.altemeister.net/", "wheelchair": "limited"}}, {"type": "node", "id": 522035960, "lat": 51.051334, "lon": 13.7448534, "tags": {"addr:city": "Dresden", "addr:country": "DE", "addr:housenumber": "4", "addr:postcode": "01067", "addr:street": "Tzschirnerplatz", "amenity": "restaurant", "cuisine": "seafood", "name": "Kastenmeiers"}}, {"type": "node", "id": 542711940, "lat": 51.0477593, "lon": 13.7348264, "tags": {"addr:city": "Dresden", "addr:country": "DE", "addr:housenumber": "9", "addr:postcode": "01067", "addr:street": "Dr.-K\u00fclz-Ring", "amenity": "restaurant", "contact:phone": "+49 351 4956083", "cuisine": "steak_house", "diet:vegetarian": "yes", "indoor_seating": "yes", "name": "Hickory", "opening_hours": "Su-Th 11:30-23:00; Fr, Sa 11:30-24:00", "outdoor_seating": "yes", "phone": "+49 351 48100179", "website": "https://www.hickory-dresden.de/", "wheelchair": "limited", "wheelchair:description:de": "Eingang offenbar nur \u00fcber Stufen zug\u00e4nglich"}}, {"type": "node", "id": 581167050, "lat": 51.0493464, "lon": 13.7406669, "tags": {"addr:city": "Dresden", "addr:country": "DE", "addr:housenumber": "6", "addr:postcode": "01067", "addr:street": "Wei\u00dfe Gasse", "amenity": "restaurant", "contact:facebook": "https://www.facebook.com/tapasbarcelona.dresden", "cuisine": "spanish", "name": "Tapas Barcelona", "opening_hours": "Mo-Fr 00:00-01:00,11:00-24:00; Sa,Su 00:00-02:00,11:00-24:00", "phone": "+49 351 4852583", "smoking": "no", "website": "https://www.tapasbarcelona.de/", "wheelchair": "limited"}}, {"type": "node", "id": 602648275, "lat": 51.04915, "lon": 13.7419197, "tags": {"addr:city": "Dresden", "addr:country": "DE", "addr:housenumber": "9", "addr:postcode": "01067", "addr:street": "Gewandhausstra\u00dfe", "amenity": "restaurant", "cuisine": "regional", "name": "Dresdner Tr\u00f6delsch\u00e4nke", "opening_hours": "Mo-Su 11:30-23:00", "outdoor_seating": "yes", "phone": "+49 351 4817048", "toilets:wheelchair": "no", "website": "http://www.troedelschaenke.de", "wheelchair": "yes"}}, {"type": "node", "id": 617306888, "lat": 51.0490565, "lon": 13.7372423, "tags": {"addr:city": "Dresden", "addr:country": "DE", "addr:housenumber": "10", "addr:postcode": "01067", "addr:street": "Altmarkt", "amenity": "restaurant", "name": "Hacker-Pschorr", "old_name": "Barococo", "wheelchair": "yes"}}, {"type": "node", "id": 662868838, "lat": 51.05194, "lon": 13.7426637, "tags": {"addr:city": "Dresden", "addr:country": "DE", "addr:housenumber": "2", "addr:postcode": "01067", "addr:street": "Salzgasse", "amenity": "restaurant", "cuisine": "russian", "name": "Aljonuschka", "opening_hours": "Tu-Su 11:30-22:00; Mo off", "website": "https://www.aljonuschka.com/", "wheelchair:description": "Stufen am Eingang", "wheelchair:description:en": "steps at the entrance"}}, {"type": "node", "id": 662874835, "lat": 51.0496545, "lon": 13.7390823, "tags": {"addr:city": "Dresden", "addr:country": "DE", "addr:housenumber": "4", "addr:postcode": "01067", "addr:street": "Altmarkt", "amenity": "restaurant", "contact:facebook": "https://www.facebook.com/altmarktkeller/", "diet:vegan": "no", "diet:vegetarian": "yes", "indoor_seating": "yes", "name": "Altmarktkeller", "opening_hours": "Mo-Su 12:00-22:00", "opening_hours:signed": "no", "outdoor_seating": "yes", "phone": "+49 351 4818130", "website": "http://www.altmarktkeller-dresden.de/", "wheelchair": "no", "wheelchair:description:de": "Stufen vor dem Eingang"}}, {"type": "node", "id": 667863806, "lat": 51.0509353, "lon": 13.7413944, "tags": {"addr:city": "Dresden", "addr:country": "DE", "addr:housenumber": "8", "addr:postcode": "01067", "addr:street": "Neumarkt", "amenity": "restaurant", "contact:email": "info@freiberger-schankhaus.de", "contact:facebook": "https://www.facebook.com/FreibergerSchankhaus", "contact:fax": "+49 351 5004348", "contact:phone": "+49 351 5004347", "contact:website": "https://www.freiberger-schankhaus.de/", "cuisine": "german", "diet:vegan": "no", "diet:vegetarian": "yes", "name": "Freiberger Schankhaus", "opening_hours": "Tu-Sa 12:00-22:00; Su,PH 12:00-21:00; Mo off", "outdoor_seating": "yes", "toilets:wheelchair": "no", "wheelchair": "limited"}}, {"type": "node", "id": 807723223, "lat": 51.0520071, "lon": 13.7409279, "tags": {"amenity": "restaurant", "cuisine": "canadian;steak_house", "entrance": "yes", "fax": "+49 351 40288665", "indoor_seating": "yes", "name": "Ontario - Canadian Steakhouse", "opening_hours": "Mo-Fr 11:00-02:00, Sa,Su 10:00-02:00", "outdoor_seating": "yes", "phone": "+49 351 40288660", "toilets:wheelchair": "yes", "website": "https://www.ontario-dresden.de/", "wheelchair": "yes"}}, {"type": "node", "id": 913439790, "lat": 51.0515197, "lon": 13.7420395, "tags": {"addr:city": "Dresden", "addr:country": "DE", "addr:housenumber": "17", "addr:postcode": "01067", "addr:street": "An der Frauenkirche", "amenity": "restaurant", "contact:facebook": "https://www.facebook.com/Augustiner-An-Der-Frauenkirche-Dresden-261954573834489/", "cuisine": "german", "indoor_seating": "yes", "name": "Augustiner an der Frauenkirche", "opening_hours": "Mo-Su 10:00-24:00", "outdoor_seating": "yes", "phone": "+49 351 49776650", "website": "https://www.augustiner-dresden.com/", "wheelchair": "limited", "wheelchair:description": "Toiletten im Keller ohne Lift"}}, {"type": "node", "id": 972592639, "lat": 51.0486943, "lon": 13.740883, "tags": {"addr:city": "Dresden", "addr:country": "DE", "addr:housenumber": "1", "addr:postcode": "01067", "addr:street": "Kreuzstra\u00dfe", "amenity": "restaurant", "cuisine": "italian;pasta", "indoor_seating": "yes", "name": "MammaMia", "opening_hours": "Mo-Su 11:00-23:00", "outdoor_seating": "yes", "payment:cash": "yes", "payment:girocard": "yes", "phone": "+49 351 4976600", "smoking": "no", "toilets": "yes", "toilets:wheelchair": "no", "website": "https://www.mammamia-dresden.de/", "wheelchair": "limited", "wheelchair:description:de": "Stufen vor dem Eingang, Treppe zu den Toiletten"}}, {"type": "node", "id": 1123870405, "lat": 51.0489551, "lon": 13.7366297, "tags": {"addr:city": "Dresden", "addr:country": "DE", "addr:housenumber": "6", "addr:postcode": "01067", "addr:street": "Seestra\u00dfe", "amenity": "restaurant", "cuisine": "chicken;regional", "level": "1", "name": "H\u00fchnerhaus", "opening_hours": "Mo-Su 11:00-22:00", "phone": "+49 351 4952320", "survey:date": "2016-09-05", "website": "http://huehnerhaus-dresden.de", "wheelchair": "no", "wheelchair:description": "Restaurant liegt im 1. Stock, kein Aufzug"}}, {"type": "node", "id": 1137981015, "lat": 51.0493204, "lon": 13.736179, "tags": {"addr:city": "Dresden", "addr:country": "DE", "addr:housenumber": "1", "addr:postcode": "01067", "addr:street": "Webergasse", "amenity": "restaurant", "changing_table": "yes", "cuisine": "bowl;pasta;sandwich;pancake;tarte_flambee;ice_cream", "diet:gluten_free": "yes", "diet:lactose_free": "yes", "diet:vegan": "yes", "diet:vegetarian": "yes", "indoor_seating": "yes", "level": "0", "name": "xfresh coffee & foodlounge", "opening_hours": "Mo-Th 08:00-22:00; Fr, Sa 08:00-24:00", "outdoor_seating": "yes", "payment:credit_cards": "yes", "payment:girocard": "yes", "phone": "+49 351 484 27 91", "toilets:wheelchair": "no", "website": "https://www.xfresh.de", "wheelchair": "yes"}}, {"type": "node", "id": 1143017394, "lat": 51.0518618, "lon": 13.7423477, "tags": {"amenity": "restaurant", "changing_table": "yes", "cuisine": "regional", "diet:vegetarian": "yes", "indoor_seating": "yes", "internet_access": "wlan", "internet_access:fee": "customers", "name": "Zum Schwan", "old_name": "Maredo", "opening_hours": "We-Su,PH 12:00-23:00; Mo,Tu off", "outdoor_seating": "yes", "payment:cash": "yes", "payment:girocard": "yes", "payment:mastercard": "yes", "payment:visa": "yes", "toilets:wheelchair": "yes", "website": "https://zumschwan-dresden.de/", "wheelchair": "yes"}}, {"type": "node", "id": 1143412756, "lat": 51.0513671, "lon": 13.7413758, "tags": {"amenity": "restaurant", "cuisine": "italian", "name": "Classico Italiano", "opening_hours": "Su-Th 11:30-23:00; Fr,Sa 11:30-23:30", "outdoor_seating": "yes", "phone": "+49 351 497738", "toilets:wheelchair": "yes", "website": "http://www.classico-italiano.de/", "website:menu": "https://classico-italiano.de/menu/", "wheelchair": "yes", "wheelchair:description": "Lift zu den Toiletten nur mit Personal"}}, {"type": "node", "id": 1143412759, "lat": 51.0521374, "lon": 13.742398, "tags": {"amenity": "restaurant", "changing_table": "yes", "highchair": "yes", "indoor_seating": "yes", "internet_access": "wlan", "internet_access:access": "customers", "internet_access:fee": "no", "name": "Coselpalais - Grand Caf\u00e9 und Restaurant", "opening_hours": "Mo-Su 11:00-23:00", "opening_hours:note": "\"Winter\u00f6ffnungszeiten\"", "outdoor_seating": "yes", "payment:american_express": "yes", "payment:girocard": "yes", "payment:mastercard": "yes", "payment:visa": "yes", "phone": "+49 351 4962444", "toilets": "yes", "toilets:access": "customers", "toilets:wheelchair": "yes", "website": "https://www.coselpalais-dresden.de/", "wheelchair": "yes"}}, {"type": "node", "id": 1149143483, "lat": 51.0514606, "lon": 13.7415738, "tags": {"amenity": "restaurant", "fee": "no", "indoor_seating": "yes", "name": "Museumsgastronomie Dresden 1900", "opening_hours": "Mo-Sa 08:00-01:00, Su 09:00-24:00", "outdoor_seating": "yes", "toilets:wheelchair": "yes", "tourism": "museum", "website": "https://www.dresden1900.de", "wheelchair": "yes"}}, {"type": "node", "id": 1149369254, "lat": 51.0531064, "lon": 13.7313276, "tags": {"addr:city": "Dresden", "addr:country": "DE", "addr:housenumber": "11", "addr:postcode": "01067", "addr:street": "Ostra-Allee", "amenity": "restaurant", "changing_table": "no", "cuisine": "russian;ukrainian", "diet:vegan": "no", "diet:vegetarian": "yes", "indoor_seating": "yes", "name": "Odessa", "opening_hours": "Tu-Th,Su 11:00-22:00; Fr,Sa 11:00-24:00", "outdoor_seating": "yes", "payment:girocard": "yes", "phone": "+49 351 26358990", "toilets": "yes", "toilets:access": "customers", "toilets:wheelchair": "no", "website": "https://www.odessa-restaurant.de/", "wheelchair": "limited", "wheelchair:description:de": "Treppe zur Toilette"}}, {"type": "node", "id": 1249591726, "lat": 51.0515037, "lon": 13.7372623, "tags": {"addr:city": "Dresden", "addr:country": "DE", "addr:housenumber": "7-9", "addr:postcode": "01067", "addr:street": "Schlo\u00dfstra\u00dfe", "amenity": "restaurant", "brand": "ALEX", "brand:wikidata": "Q18018122", "changing_table": "yes", "check_date": "2023-04-08", "cuisine": "regional", "diet:kosher": "no", "diet:vegetarian": "yes", "fax": "+49 351 40763269", "indoor_seating": "yes", "internet_access": "wlan", "internet_access:fee": "no", "internet_access:operator": "Telekom", "name": "ALEX", "old_name": "Bistro Cafe Am Schloss", "opening_hours": "Mo-Th 08:00-01:00, Fr,Sa 08:00-02:00, Su,PH 09:00-01:00", "operator": "ALEX Gastst\u00e4tten GmbH & Co. KG", "outdoor_seating": "yes", "payment:account_cards": "yes", "payment:mastercard": "yes", "payment:visa": "yes", "phone": "+49 351 40763260", "start_date": "2015-03-10", "toilets": "yes", "toilets:wheelchair": "yes", "website": "https://www.dein-alex.de", "wheelchair": "yes", "wheelchair:description:de": "WC in 1. Etage, nur \u00fcber Treppen erreichbar"}}, {"type": "node", "id": 1250771025, "lat": 51.0520532, "lon": 13.7401529, "tags": {"amenity": "restaurant", "cuisine": "vietnamese", "name": "Tamakuchi Restaurant & Sushibar", "opening_hours": "Mo-Su 11:00-24:00", "outdoor_seating": "yes", "wheelchair": "limited", "wheelchair:description": "Nur Zugang zum Restaurant \u00fcber QF-Passage rollstuhlgerecht, Rollstuhl-WC i. d. Passage 1.UG mit Euroschl\u00fcssel"}}, {"type": "node", "id": 1250771041, "lat": 51.0502251, "lon": 13.7407839, "tags": {"amenity": "restaurant", "cuisine": "bowl", "diet:vegan": "yes", "diet:vegetarian": "yes", "email": "info@greenandgloria.de", "indoor_seating": "yes", "level": "0", "name": "Green & Gloria", "old_name": "Cocoon", "opening_hours": "Tu-Sa 09:00-21:00; Su, Mo off", "opening_hours:kitchen": "Tu-Sa 09:00-20:00", "organic": "only", "outdoor_seating": "yes", "phone": "+49 351 821259 61", "website": "https://www.greenandgloria.de/"}}, {"type": "node", "id": 1250771057, "lat": 51.0517863, "lon": 13.7365631, "tags": {"amenity": "restaurant", "cuisine": "french", "name": "Palais Bistro", "opening_hours": "Mo-Th 12:00-14:30,17:30-22:00; Fr-Su 12:00-22:00", "phone": "+49 351 4912710", "smoking": "no", "website": "https://www.kempinski.com/de/dresden/hotel-taschenbergpalais/restaurants/restaurants/palais-bistro/"}}, {"type": "node", "id": 1250771072, "lat": 51.0519412, "lon": 13.7402417, "tags": {"amenity": "restaurant", "cuisine": "italian", "indoor_seating": "yes", "name": "Ausonia 2", "outdoor_seating": "yes", "toilets:wheelchair": "yes", "website": "http://www.ristorante-ausonia.de/", "wheelchair": "yes", "wheelchair:description": "Fahrstuhl im Hotel"}}, {"type": "node", "id": 1300702577, "lat": 51.0492231, "lon": 13.7400955, "tags": {"addr:city": "Dresden", "addr:country": "DE", "addr:housenumber": "1", "addr:postcode": "01067", "addr:street": "Wei\u00dfe Gasse", "amenity": "restaurant", "changing_table": "no", "cuisine": "greek;fish", "diet:vegan": "no", "diet:vegetarian": "yes", "indoor_seating": "yes", "internet_access": "wlan", "internet_access:fee": "no", "name": "Meet The Greek", "opening_hours": "Mo-Su 11:00-23:00", "outdoor_seating": "yes", "payment:girocard": "yes", "payment:maestro": "yes", "payment:mastercard": "yes", "payment:v_pay": "yes", "payment:visa": "yes", "phone": "+49 351 4976280", "toilets": "yes", "toilets:wheelchair": "no", "website": "https://www.meetthegreek.de/", "wheelchair": "yes", "wheelchair:description:de": "Treppe zur Toilette"}}, {"type": "node", "id": 1376587408, "lat": 51.0519076, "lon": 13.7349373, "tags": {"amenity": "restaurant", "cuisine": "german", "description": "Gew\u00f6lberestaurant", "diet:vegan": "limited", "diet:vegetarian": "yes", "indoor_seating": "yes", "name": "Sophienkeller im Taschenbergpalais", "opening_hours": "12:00-22:00", "outdoor_seating": "yes", "phone": "+49 351 49 72 60", "toilets:wheelchair": "no", "website": "https://www.sophienkeller-dresden.de/", "wheelchair": "limited"}}, {"type": "node", "id": 1404812528, "lat": 51.0530905, "lon": 13.7411519, "tags": {"amenity": "restaurant", "cuisine": "regional", "indoor_seating": "yes", "name": "Bierhaus Dampfschiff", "opening_hours": "Mo-Su 11:30-24:00", "outdoor_seating": "yes", "phone": "+49 351 8642 826", "website": "http://www.restaurants-muenzgasse.de/", "wheelchair": "yes"}}, {"type": "node", "id": 1404812531, "lat": 51.0521081, "lon": 13.7360318, "tags": {"amenity": "restaurant", "capacity": "75", "cuisine": "international", "name": "Intermezzo", "opening_hours": "Mo-Fr 06:30-10:30; Sa-Su 06:30-11:00; Mo-Sa 12:00-15:00,16:00-23:30", "phone": "+49 351 4912712", "website": "https://www.kempinski.com/de/dresden/hotel-taschenbergpalais/restaurants/restaurants/gourmet-restaurant-intermezzo/"}}, {"type": "node", "id": 1404812532, "lat": 51.0531521, "lon": 13.7406803, "tags": {"amenity": "restaurant", "name": "KunstCafe Antik"}}, {"type": "node", "id": 1404812555, "lat": 51.052, "lon": 13.7366238, "tags": {"amenity": "restaurant", "biergarten": "yes", "cuisine": "german", "internet_access": "wlan", "name": "Paulaner's", "opening_hours": "11:00-01:00", "phone": "+49 351 496017", "website": "http://cms.paulaners-dresden.de/opencms/opencms/paulaners/de/_header/ueber_uns/index.html", "wheelchair": "no"}}, {"type": "node", "id": 1491910966, "lat": 51.0508516, "lon": 13.7361231, "tags": {"addr:city": "Dresden", "addr:country": "DE", "addr:housenumber": "20", "addr:postcode": "01067", "addr:street": "Wilsdruffer Stra\u00dfe", "amenity": "restaurant", "check_date:opening_hours": "2023-04-07", "contact:phone": "+49 351 49783999", "cuisine": "sushi", "description": "Sushi Running", "indoor_seating": "yes", "name": "Tokyo - Kaiten Sushi", "opening_hours": "Mo-Su 11:30-22:00", "outdoor_seating": "yes", "phone": "+49 351 49763999", "toilets": "yes", "wheelchair": "limited"}}, {"type": "node", "id": 1594445628, "lat": 51.0509116, "lon": 13.7356071, "tags": {"amenity": "restaurant", "cuisine": "pasta;burger;bowl", "diet:vegan": "limited", "diet:vegetarian": "yes", "drink:beer": "yes", "drink:champagne": "yes", "drink:cocktail": "yes", "drink:coffee": "yes", "drink:gin": "yes", "drink:spirit": "yes", "drink:wine": "yes", "indoor_seating": "yes", "name": "Twenty Two", "opening_hours": "Mo-Fr 17:00-24:00; Sa,Su 00:00-02:30,17:00-24:00", "outdoor_seating": "yes", "payment:credit_cards": "yes", "payment:girocard": "yes", "website": "https://twentytwo-dresden.de/"}}, {"type": "node", "id": 1594445725, "lat": 51.0508861, "lon": 13.7358263, "tags": {"amenity": "restaurant", "contact:phone": "+49 351 27286316", "contact:website": "https://dresden.enchilada.de", "cuisine": "spanish", "diet:vegetarian": "yes", "indoor_seating": "yes", "level": "0", "name": "Enchilada", "opening_hours": "Su-Th 17:00-24:00; Fr,Sa 17:00-01:00", "outdoor_seating": "yes", "start_date": "2016-06-17"}}, {"type": "node", "id": 1703104864, "lat": 51.0477399, "lon": 13.7352077, "tags": {"addr:postcode": "01067", "amenity": "restaurant", "cuisine": "regional", "indoor_seating": "yes", "name": "Watzke Brauereiausschank am Ring", "opening_hours": "Su-Th 11:30-23:00; Fr-Sa 11:30-00:00", "outdoor_seating": "yes", "phone": "+49 351 20524381", "toilets:wheelchair": "yes", "website": "https://www.watzke.de/", "wheelchair": "yes"}}, {"type": "node", "id": 1865385849, "lat": 51.0488443, "lon": 13.7413938, "tags": {"addr:city": "Dresden", "addr:country": "DE", "addr:housenumber": "3", "addr:postcode": "01067", "addr:street": "Gewandhausstra\u00dfe", "amenity": "restaurant", "cuisine": "mexican", "diet:vegetarian": "yes", "indoor_seating": "yes", "name": "Tex Mex Santa Fe", "opening_hours": "Mo-Th 17:00-23:00; Fr-Su 12:00-24:00", "outdoor_seating": "yes", "phone": "+49 351 8488550", "toilets:wheelchair": "yes", "website": "https://www.tex-mex.de/", "wheelchair": "yes"}}, {"type": "node", "id": 1865397243, "lat": 51.049371, "lon": 13.7402594, "tags": {"addr:city": "Dresden", "addr:housenumber": "5", "addr:postcode": "01067", "addr:street": "Wei\u00dfe Gasse", "amenity": "restaurant", "contact:email": "info@foersters-dresden.de", "contact:facebook": "https://www.facebook.com/Foersters", "contact:fax": "+49 351 4848702", "contact:website": "foersters-dresden.de", "cuisine": "german", "name": "F\u00f6rsters", "opening_hours": "PH,Mo-Su 12:00-22:00", "payment:american_express": "yes", "payment:diners_club": "yes", "payment:jcb": "yes", "payment:union_pay": "yes", "payment:visa": "yes", "phone": "+49 351 4848701"}}, {"type": "node", "id": 1883513653, "lat": 51.048647, "lon": 13.741137, "tags": {"addr:city": "Dresden", "addr:housenumber": "1", "addr:postcode": "01067", "addr:street": "Kreuzstra\u00dfe", "amenity": "restaurant", "changing_table": "no", "cuisine": "italian;pizza;pasta", "delivery": "no", "diet:vegan": "yes", "diet:vegetarian": "yes", "indoor_seating": "yes", "name": "La Osteria", "opening_hours": "Mo-Su 11:00-23:00", "outdoor_seating": "yes", "phone": "+49 351 4976230", "toilets": "yes", "toilets:access": "customers", "toilets:disposal": "flush", "toilets:handwashing": "yes", "toilets:level": "1", "toilets:position": "seated;urinal", "toilets:wheelchair": "no", "website": "https://www.laosteria.de/", "website:menu": "https://www.laosteria.de/wp-content/uploads/2022/10/La-Osteria_Speisen_10-22_web.pdf", "wheelchair": "yes"}}, {"type": "node", "id": 2109087887, "lat": 51.0549456, "lon": 13.7368323}, {"type": "node", "id": 2109087890, "lat": 51.0549489, "lon": 13.7368467}, {"type": "node", "id": 2109087893, "lat": 51.0549532, "lon": 13.7367918}, {"type": "node", "id": 2109087896, "lat": 51.0549653, "lon": 13.7368683}, {"type": "node", "id": 2109087899, "lat": 51.0549581, "lon": 13.7367852}, {"type": "node", "id": 2109087902, "lat": 51.0549741, "lon": 13.7368706}, {"type": "node", "id": 2109087905, "lat": 51.0549859, "lon": 13.736867}, {"type": "node", "id": 2109087908, "lat": 51.0549918, "lon": 13.7368617}, {"type": "node", "id": 2109087910, "lat": 51.0550117, "lon": 13.7367156}, {"type": "node", "id": 2109087926, "lat": 51.0550213, "lon": 13.7367158}, {"type": "node", "id": 2109087929, "lat": 51.0550504, "lon": 13.7367267}, {"type": "node", "id": 2109087932, "lat": 51.0550478, "lon": 13.7367976}, {"type": "node", "id": 2109087935, "lat": 51.0550578, "lon": 13.7367447}, {"type": "node", "id": 2109087937, "lat": 51.0550513, "lon": 13.7367926}, {"type": "node", "id": 2109087939, "lat": 51.0550591, "lon": 13.7367527}, {"type": "node", "id": 2199769174, "lat": 51.0536635, "lon": 13.7396501}, {"type": "node", "id": 2260626594, "lat": 51.0491776, "lon": 13.7357116, "tags": {"addr:city": "Dresden", "addr:country": "DE", "addr:housenumber": "1", "addr:postcode": "01067", "addr:street": "Webergasse", "amenity": "restaurant", "contact:fax": "+49 351 4842450", "contact:phone": "+49 351 4842450", "contact:website": "http://www.ristorante-violino-dresden.de/", "cuisine": "italian", "fax": "+49 351 4842450", "image": "http://www.ristorante-violino-dresden.de/img/eingang.jpg", "level": "1", "name": "Ristorante Violino", "opening_hours": "Mo-Sa 10:00-20:00; Su off", "payment:credit_cards": "yes", "phone": "+49 351 4842450", "wheelchair": "yes"}}, {"type": "node", "id": 2387717766, "lat": 51.0484718, "lon": 13.7354617, "tags": {"addr:city": "Dresden", "addr:country": "DE", "addr:housenumber": "1", "addr:postcode": "01067", "addr:street": "Webergasse", "amenity": "restaurant", "cuisine": "spanish", "description": "Spanische tapas Bar mit Lieferservice in der Altmarkt Galerie Dresden", "level": "-1", "name": "Las Tapas r\u00e1pido", "opening_hours": "Mo-Sa 10:00-20:00; Su off", "phone": "+49 351 4865905", "website": "https://www.las-tapas.de", "wheelchair": "no"}}, {"type": "node", "id": 2395518519, "lat": 51.0493163, "lon": 13.7401279, "tags": {"addr:city": "Dresden", "addr:country": "DE", "addr:housenumber": "3", "addr:postcode": "01067", "addr:street": "Wei\u00dfe Gasse", "amenity": "restaurant", "cuisine": "thai", "indoor_seating": "yes", "name": "Samui", "outdoor_seating": "yes", "toilets:wheelchair": "no", "wheelchair": "limited"}}, {"type": "node", "id": 2435547108, "lat": 51.0520309, "lon": 13.7453672}, {"type": "node", "id": 2435547109, "lat": 51.052005, "lon": 13.7453229}, {"type": "node", "id": 2435547110, "lat": 51.0520132, "lon": 13.7456192}, {"type": "node", "id": 2435547111, "lat": 51.0520729, "lon": 13.7455238}, {"type": "node", "id": 2435547112, "lat": 51.0519141, "lon": 13.7454485}, {"type": "node", "id": 2492663658, "lat": 51.054957, "lon": 13.7368615}, {"type": "node", "id": 2496620906, "lat": 51.0550387, "lon": 13.7367157}, {"type": "node", "id": 2496620911, "lat": 51.0550571, "lon": 13.7367786}, {"type": "node", "id": 2496620914, "lat": 51.0549455, "lon": 13.7368164}, {"type": "node", "id": 2496620931, "lat": 51.0549763, "lon": 13.7367551}, {"type": "node", "id": 2496620932, "lat": 51.054975, "lon": 13.7367499}, {"type": "node", "id": 2496620936, "lat": 51.0549785, "lon": 13.7367356}, {"type": "node", "id": 2496620939, "lat": 51.0549853, "lon": 13.7367254}, {"type": "node", "id": 2496620945, "lat": 51.0550104, "lon": 13.7367114}, {"type": "node", "id": 2510407756, "lat": 51.0532932, "lon": 13.7403291, "tags": {"amenity": "restaurant", "cuisine": "asian", "name": "Hot Wok", "phone": "+49 351 49776246", "website": "http://www.hotwok-dresden.de/"}}, {"type": "node", "id": 2512417376, "lat": 51.0519933, "lon": 13.7321721, "tags": {"addr:city": "Dresden", "addr:housenumber": "2", "addr:postcode": "01067", "addr:street": "Theaterstra\u00dfe", "amenity": "restaurant", "cuisine": "regional", "delivery": "no", "name": "Theatergastst\u00e4tte William", "opening_hours": "Tu-Sa 12:00-22:00; Su,PH 11:00-22:00; Mo off", "phone": "+49 351 65298220", "smoking": "no", "takeaway": "no", "website": "https://www.restaurant-william.de/"}}, {"type": "node", "id": 2514500253, "lat": 51.0527555, "lon": 13.7412118, "tags": {"amenity": "restaurant", "cuisine": "steak_house", "name": "Applaus - Steaks, Bar & More", "phone": "+49 351 8642 820", "website": "http://www.restaurants-muenzgasse.de/"}}, {"type": "node", "id": 2514502768, "lat": 51.0524632, "lon": 13.7407641, "tags": {"amenity": "restaurant", "contact:facebook": "https://www.facebook.com/Rossini-im-Hilton-Dresden-900888053274222/", "cuisine": "italian", "level": "1", "name": "Rossini", "phone": "+49 351 8642 855", "toilets:wheelchair": "yes", "website": "http://www.restaurants-muenzgasse.de/", "wheelchair": "yes"}}, {"type": "node", "id": 2514510854, "lat": 51.0524865, "lon": 13.7406566, "tags": {"amenity": "restaurant", "check_date:opening_hours": "2023-04-09", "contact:phone": "+49 351 8642975", "cuisine": "japanese", "description": "zum Haupteingang des Hilton herrein, links halten, die breite Treppe nach oben , nach dem passieren des Lichthofes, bevor es weiter mit einer Treppe geht, links der Eingang zum Ogura", "level": "1", "name": "Ogura", "opening_hours": "Mo off; Th-Sa 11:30-14:00,17:30-22:00; Su 17:30-22:00", "website": "http://www.ogura-dresden.de/"}}, {"type": "node", "id": 2515506098, "lat": 51.0521124, "lon": 13.7403277, "tags": {"amenity": "restaurant", "cuisine": "sushi", "level": "-1", "name": "QBAR Sushi & Snack", "phone": "+49 351 4850998", "toilets:wheelchair": "yes", "wheelchair": "yes"}}, {"type": "node", "id": 2518668040, "lat": 51.0506852, "lon": 13.7404303, "tags": {"addr:city": "Dresden", "addr:country": "DE", "addr:housenumber": "12", "addr:postcode": "01067", "addr:street": "Neumarkt", "amenity": "restaurant", "contact:email": "mail@burgerei-dresden.de", "contact:phone": "+49 351 49773553", "contact:website": "https://www.burgerei-dresden.de/", "cuisine": "burger", "diet:vegan": "yes", "diet:vegetarian": "yes", "highchair": "yes", "internet_access": "wlan", "internet_access:fee": "no", "name": "burgerei", "opening_hours": "Mo-Su 08:30-24:00", "operator": "Widmann Gastronomie GmbH", "outdoor_seating": "yes", "payment:cash": "yes", "payment:credit_cards": "yes", "payment:girocard": "yes", "reservation": "yes", "toilets:wheelchair": "no", "wheelchair": "no", "wheelchair:description": "Im Sommer gibt es Bestuhlung drau\u00dfen"}}, {"type": "node", "id": 2533634890, "lat": 51.0514821, "lon": 13.7435959, "tags": {"addr:city": "Dresden", "addr:housenumber": "27", "addr:postcode": "01067", "addr:street": "Rampische Stra\u00dfe", "amenity": "restaurant", "check_date:opening_hours": "2022-08-31", "contact:email": "info@lunchtime.jetzt", "contact:instagram": "https://www.instagram.com/lunchtime_dresden/", "contact:phone": "+49 351 79675572", "contact:website": "https://www.lunchtime.jetzt", "craft": "caterer", "entrance": "main", "indoor_seating": "yes", "level": "0", "name": "Lunch Time", "opening_hours": "Mo-Fr 11:00-16:00", "outdoor_seating": "yes", "smoking": "no", "wheelchair": "yes"}}, {"type": "node", "id": 2533634953, "lat": 51.0515552, "lon": 13.7430137, "tags": {"addr:city": "Dresden", "addr:housenumber": "9", "addr:postcode": "01067", "addr:street": "Rampische Stra\u00dfe", "amenity": "restaurant", "contact:email": "innside.dresden@melia.com", "contact:phone": "+49 351 795151021", "contact:website": "http://www.ven-dresden.de/", "cuisine": "international", "dog": "no", "entrance": "yes", "level": "0", "name": "VEN - Restaurant", "opening_hours": "Mo-Sa 06:30-10:30,12:00-15:00,18:00-22:00; Su,PH 06:30-11:00", "phone": "+49 351 79 515 0", "wheelchair": "yes"}}, {"type": "node", "id": 2535127442, "lat": 51.0515884, "lon": 13.7426833, "tags": {"amenity": "restaurant", "cuisine": "international", "name": "Moritz", "opening_hours": "Mo-Su 17:30+", "phone": "+49 351 417270", "website": "https://www.moritz-dresden.de/"}}, {"type": "node", "id": 2562971882, "lat": 51.051469, "lon": 13.7359285, "tags": {"amenity": "restaurant", "diet:vegetarian": "yes", "name": "Miss Zhao's Kitchen"}}, {"type": "node", "id": 3219374770, "lat": 51.050286, "lon": 13.740422, "tags": {"addr:city": "Dresden", "addr:country": "DE", "addr:housenumber": "14-16", "addr:postcode": "01067", "addr:street": "Wilsdruffer Stra\u00dfe", "amenity": "restaurant", "brand": "L'Osteria", "brand:wikidata": "Q17323478", "brand:wikipedia": "de:L\u2019Osteria", "contact:fax": "+49 351 46287812", "contact:phone": "+49 351 46287810", "cuisine": "italian", "email": "dresden@losteria.de", "name": "L'Osteria", "opening_hours": "Mo-Th 11:30-23:00; Fr,Sa 11:30-24:00; PH,Su 12:00-23:00", "operator": "M & K GmbH", "outdoor_seating": "yes", "phone": "+49 351 48287810", "toilets:wheelchair": "yes", "website": "https://losteria.net/de/restaurants/restaurant/dresden-wilsdruffer-strasse/", "wheelchair": "yes"}}, {"type": "node", "id": 3554228997, "lat": 51.0521957, "lon": 13.7452865, "tags": {"alt_name": "Festungsmauern am Br\u00fchlschen Garten", "amenity": "restaurant", "disused": "yes", "level": "-1", "name": "Festungsmauern", "note": "im Gew\u00f6lbe unterhalb des Geb\u00e4udes"}}, {"type": "node", "id": 3612528720, "lat": 51.0488964, "lon": 13.742221, "tags": {"addr:city": "Dresden", "addr:housenumber": "3", "addr:postcode": "01067", "addr:street": "Ringstra\u00dfe", "amenity": "restaurant", "capacity": "100", "cuisine": "greek", "name": "The Loft", "outdoor_seating": "yes"}}, {"type": "node", "id": 3698555375, "lat": 51.0524662, "lon": 13.7414463, "tags": {"addr:city": "Dresden", "addr:housenumber": "7", "addr:postcode": "01067", "addr:street": "An der Frauenkirche", "amenity": "restaurant", "cuisine": "swiss;breakfast", "diet:vegetarian": "yes", "name": "Edelweiss Alpenrestaurant", "opening_hours": "Mo-Fr,PH 09:00-24:00; Sa,Su 00:00-01:00,09:00-24:00", "outdoor_seating": "yes", "payment:cash": "yes", "payment:girocard": "yes", "phone": "+49 351 498 9836", "source": "survey", "toilets": "yes", "website": "https://www.edelweiss-alpenrestaurant.de/", "wheelchair": "no"}}, {"type": "node", "id": 3731820458, "lat": 51.0477282, "lon": 13.7355689, "tags": {"addr:city": "Dresden", "addr:country": "DE", "addr:housenumber": "11", "addr:postcode": "01067", "addr:street": "Dr.-K\u00fclz-Ring", "amenity": "restaurant", "cuisine": "german", "indoor_seating": "yes", "name": "Watzkes Wurstk\u00fcche", "name:en": "Watzke's Wurstk\u00fcche", "opening_hours": "Mo-Th 11:30-23:00; Fr-Sa 11:30-24:00", "outdoor_seating": "yes", "phone": "+49 351 48619933", "website": "http://www.watzke-wurstkueche.de"}}, {"type": "node", "id": 3822756369, "lat": 51.0550142, "lon": 13.7367212}, {"type": "node", "id": 3893830687, "lat": 51.0499282, "lon": 13.7367723, "tags": {"addr:city": "Dresden", "addr:housenumber": "24", "addr:postcode": "01067", "addr:street": "Altmarkt", "amenity": "restaurant", "brand": "Hans im Gl\u00fcck", "brand:wikidata": "Q22569868", "brand:wikipedia": "de:Hans im Gl\u00fcck (Restaurantkette)", "changing_table": "no", "check_date": "2023-04-09", "contact:facebook": "https://www.facebook.com/HANS.IM.GLUECK.Dresden.Altmarkt/", "cuisine": "burger", "diet:vegan": "yes", "diet:vegetarian": "yes", "indoor_seating": "yes", "name": "Hans im Gl\u00fcck", "official_name": "hans im gl\u00fcck", "opening_hours": "Mo-Fr 11:00-24:00; Sa,Su 00:00-01:00,11:00-24:00", "outdoor_seating": "yes", "takeaway": "no", "toilets": "yes", "toilets:access": "customers", "toilets:disposal": "flush", "toilets:level": "0", "toilets:wheelchair": "yes", "website": "https://hansimglueck-burgergrill.de/standorte/dresden-altmarkt/", "wheelchair": "no"}}, {"type": "node", "id": 4230827789, "lat": 51.0485478, "lon": 13.74162, "tags": {"addr:city": "Dresden", "addr:housenumber": "1", "addr:postcode": "01067", "addr:street": "Ringstra\u00dfe", "amenity": "restaurant", "indoor_seating": "yes", "name": "[m]eatary", "opening_hours": "Mo-Su 18:00-22:30", "outdoor_seating": "yes", "wheelchair": "no"}}, {"type": "node", "id": 4314606120, "lat": 51.0516429, "lon": 13.7389963, "tags": {"addr:housenumber": "14", "addr:street": "Sch\u00f6ssergasse", "amenity": "restaurant", "brand": "Vapiano", "brand:wikidata": "Q506252", "brand:wikipedia": "en:Vapiano", "cuisine": "italian", "diet:vegan": "yes", "diet:vegetarian": "yes", "dish": "pinsa", "name": "Vapiano", "opening_hours": "Mo-Th 06:30-23:00; Fr 06:30-00:00; Sa 07:00-00:00; Su 07:00-23:00", "outdoor_seating": "yes", "toilets:wheelchair": "yes", "website": "https://www.vapiano.de/de/standorte/dresden-juedenhof", "wheelchair": "yes", "wheelchair:description": "Rolli WC rechts neben Kaffeebar, nicht ausgeschildert, T\u00fcr manuell zu \u00f6ffnen"}}, {"type": "node", "id": 4381198192, "lat": 51.0507736, "lon": 13.7403116, "tags": {"addr:city": "Dresden", "addr:country": "DE", "addr:housenumber": "12", "addr:postcode": "01067", "addr:street": "Neumarkt", "amenity": "restaurant", "changing_table": "no", "contact:email": "mail@bodegamadrid.de", "contact:facebook": "https://www.facebook.com/bodegamadrid.dresden", "contact:instagram": "https://www.instagram.com/bodegamadrid_dresden/", "contact:phone": "+49 351 49773800", "contact:website": "https://www.bodegamadrid.de/", "cuisine": "spanish;tapas;fish", "diet:vegan": "no", "diet:vegetarian": "yes", "internet_access": "wlan", "internet_access:fee": "no", "name": "bodega Madrid", "opening_hours": "Mo-Th,Su,PH 11:00-22:00; Fr,Sa 11:00-23:00", "outdoor_seating": "yes", "payment:girocard": "yes", "reservation": "yes", "toilets:wheelchair": "yes", "wheelchair": "yes"}}, {"type": "node", "id": 4386188651, "lat": 51.0484743, "lon": 13.7366269, "tags": {"addr:housenumber": "10", "addr:street": "Seestra\u00dfe", "amenity": "restaurant", "check_date": "2023-04-07", "contact:email": "dresden@aposto.eu", "contact:phone": "+49 351 42467840", "contact:website": "https://dresden.aposto.eu/", "cuisine": "italian;noodle;pizza", "diet:vegetarian": "yes", "name": "Aposto", "opening_hours": "11:00-24:00; Fr,Sa 11:00-01:00", "outdoor_seating": "yes", "toilets:wheelchair": "yes", "wheelchair": "limited"}}, {"type": "node", "id": 4897562205, "lat": 51.0508837, "lon": 13.7400604, "tags": {"addr:city": "Dresden", "addr:housenumber": "16", "addr:postcode": "01067", "addr:street": "Frauenstra\u00dfe", "amenity": "restaurant", "indoor_seating": "yes", "name": "Hofbr\u00e4u zur Frauenkirche", "name:de": "Hofbr\u00e4u zur Frauenkirche", "opening_hours": "Tu-Th 16:00-22:00; Fr 12:00-22:00; Sa,Su 11:00-22:00; Mo off", "outdoor_seating": "yes", "toilets:wheelchair": "no", "wheelchair": "limited"}}, {"type": "node", "id": 4985742421, "lat": 51.0516281, "lon": 13.7344698, "tags": {"addr:city": "Dresden", "addr:housenumber": "1-5", "addr:postcode": "01067", "addr:street": "Kleine Br\u00fcdergasse", "amenity": "restaurant", "indoor_seating": "yes", "internet_access": "wlan", "name": "Felix im lebendigen Haus", "outdoor_seating": "roof", "phone": "+49 351 32 033 960", "toilets": "yes", "toilets:wheelchair": "yes", "website": "https://dein-felix.de/dresden", "wheelchair": "yes"}}, {"type": "node", "id": 5552917610, "lat": 51.052691, "lon": 13.7413792, "tags": {"addr:city": "Dresden", "addr:country": "DE", "addr:housenumber": "4", "addr:postcode": "01067", "addr:street": "M\u00fcnzgasse", "amenity": "restaurant", "contact:facebook": "https://www.facebook.com/LasTapasRestaurantDresden", "contact:youtube": "https://www.youtube.com/user/LasTapas1", "cuisine": "spanish", "name": "Las Tapas", "opening_hours": "Mo-Su 00:00-01:00,11:00-24:00", "phone": "+49 351 4960108", "toilets:wheelchair": "no", "website": "http://www.las-tapas.de/", "wheelchair": "limited"}}, {"type": "node", "id": 5552917611, "lat": 51.0528253, "lon": 13.7413826, "tags": {"addr:city": "Dresden", "addr:country": "DE", "addr:housenumber": "8", "addr:postcode": "01067", "addr:street": "M\u00fcnzgasse", "amenity": "restaurant", "bar": "yes", "biergarten": "yes", "changing_table": "yes", "changing_table:location": "female_toilet", "cuisine": "australian", "internet_access": "wlan", "internet_access:fee": "no", "name": "Ayers Rock - Restaurant & Bar", "opening_hours": "Mo-Su 11:00-03:00", "phone": "+49 351 4901188", "toilets": "yes", "toilets:wheelchair": "no", "website": "https://www.ayersrock-dresden.de/", "wheelchair": "limited", "wheelchair:description": "Nur Au\u00dfenbestuhlung zug\u00e4nglich. Treppe am Eingang, Treppe zum WC."}}, {"type": "node", "id": 5552917614, "lat": 51.0530636, "lon": 13.741449, "tags": {"addr:city": "Dresden", "addr:housenumber": "10", "addr:postcode": "01067", "addr:street": "M\u00fcnzgasse", "amenity": "restaurant", "changing_table": "yes", "changing_table:location": "wheelchair_toilet", "cuisine": "regional", "diet:vegan": "no", "diet:vegetarian": "limited", "indoor_seating": "yes", "internet_access": "wlan", "internet_access:fee": "customers", "name": "Kutschersch\u00e4nke", "opening_hours": "Mo-Th, Su 10:00-23:00; Fr, Sa 10:00-00:00", "outdoor_seating": "yes", "payment:cash": "yes", "payment:girocard": "yes", "phone": "+49 351 4965123", "toilets": "yes", "toilets:wheelchair": "yes", "website": "https://www.kutscherschaenke-dresden.de/", "website:menu": "https://www.kutscherschaenke-dresden.de/_files/ugd/a73fd9_eff948642a12457885b63ecd72439afd.pdf", "wheelchair": "yes"}}, {"type": "node", "id": 5598589989, "lat": 51.055055, "lon": 13.7367357}, {"type": "node", "id": 5598589990, "lat": 51.0550459, "lon": 13.7367209}, {"type": "node", "id": 5598589991, "lat": 51.0550335, "lon": 13.736714}, {"type": "node", "id": 5598589992, "lat": 51.0550275, "lon": 13.7367139}, {"type": "node", "id": 5598589993, "lat": 51.0549467, "lon": 13.7368086}, {"type": "node", "id": 5598589994, "lat": 51.0549494, "lon": 13.7367996}, {"type": "node", "id": 5598589995, "lat": 51.0549529, "lon": 13.7368557}, {"type": "node", "id": 5598589996, "lat": 51.0549809, "lon": 13.7368695}, {"type": "node", "id": 5598589997, "lat": 51.0550545, "lon": 13.7367861}, {"type": "node", "id": 5598589998, "lat": 51.055059, "lon": 13.7367682}, {"type": "node", "id": 5983120378, "lat": 51.0495553, "lon": 13.7367156, "tags": {"addr:city": "Dresden", "addr:housenumber": "21-23", "addr:postcode": "01067", "addr:street": "Altmarkt", "amenity": "restaurant", "capacity": "100", "cuisine": "regional;german", "delivery": "no", "diet:vegan": "yes", "diet:vegetarian": "yes", "level": "0", "name": "Wilma Wunder", "opening_hours": "Mo-Su 08:30-22:00", "outdoor_seating": "yes", "reservation": "recommended", "smoking": "outside", "takeaway": "no", "toilets:wheelchair": "yes", "website": "https://dresden.wilma-wunder.de/", "wheelchair": "yes"}}, {"type": "node", "id": 6229407792, "lat": 51.0485641, "lon": 13.7354584, "tags": {"amenity": "restaurant", "cuisine": "asian", "level": "-1", "name": "Fu Loi", "opening_hours": "Mo-Sa 10:00-20:00; Su off", "website": "http://www.asiafuloi.de"}}, {"type": "node", "id": 6546837689, "lat": 51.0516579, "lon": 13.7346429, "tags": {"alt_name": "Codo", "amenity": "restaurant", "cuisine": "vietnamese", "diet:vegan": "yes", "name": "C\u00d4D\u00d4", "opening_hours": "Su-Th 11:00-23:00, Fr-Sa 11:00-24:00", "phone": "+49 351 48104820", "website": "https://www.codo-deli.de/"}}, {"type": "node", "id": 7184030157, "lat": 51.0507239, "lon": 13.7325858, "tags": {"addr:city": "Dresden", "addr:country": "DE", "addr:housenumber": "2", "addr:postcode": "01067", "addr:street": "Postplatz", "amenity": "restaurant", "cuisine": "czech;bohemian", "diet:vegetarian": "yes", "indoor_seating": "yes", "name": "Wenzel Dresden-Postplatz - Das B\u00f6hmische Wirtshaus", "opening_hours": "Su-Th 11:30-22:00; Fr-Sa 11:30-23:00", "outdoor_seating": "yes", "toilets:wheelchair": "yes", "website": "https://www.wenzel-restaurant.de/standorte/wenzel-dresden-postplatz/", "wheelchair": "limited"}}, {"type": "node", "id": 7196190634, "lat": 51.0476982, "lon": 13.7410617, "tags": {"amenity": "restaurant", "level": "-1", "name": "Ratskeller", "opening_hours": "Mo-Fr 8:00-14:00; PH off"}}, {"type": "node", "id": 7540572059, "lat": 51.0507122, "lon": 13.7328868, "tags": {"addr:housenumber": "2a", "addr:street": "Postplatz", "amenity": "restaurant", "cuisine": "sushi", "delivery": "yes", "diet:vegan": "yes", "diet:vegetarian": "yes", "indoor_seating": "yes", "name": "Shiki", "opening_hours": "Mo-Th, Su 11:00-15:00, 17:00-23:00; Fr, Sa 11:00-00:00", "outdoor_seating": "yes", "phone": "+4935149761777", "website": "https://www.shiki-dresden.de"}}, {"type": "node", "id": 7541395720, "lat": 51.0507791, "lon": 13.7367348, "tags": {"amenity": "restaurant", "cuisine": "pizza;ice_cream", "indoor_seating": "yes", "name": "Sfizio", "outdoor_seating": "yes"}}, {"type": "node", "id": 7877853522, "lat": 51.0491996, "lon": 13.7389458, "tags": {"addr:city": "Dresden", "addr:country": "DE", "addr:housenumber": "6", "addr:postcode": "01067", "addr:street": "Altmarkt", "amenity": "restaurant", "brand": "Sausalitos", "brand:wikidata": "Q2227783", "cuisine": "mexican", "diet:vegan": "yes", "diet:vegetarian": "yes", "indoor_seating": "yes", "name": "Sausalitos", "opening_hours": "Su-Fr 16:00+, Sa 12:00+", "outdoor_seating": "yes", "phone": "+4935116013140", "wheelchair": "yes"}}, {"type": "node", "id": 7992286296, "lat": 51.0513604, "lon": 13.73923, "tags": {"addr:city": "Dresden", "addr:housenumber": "22", "addr:postcode": "01067", "addr:street": "Galeriestra\u00dfe", "amenity": "restaurant", "changing_table": "yes", "changing_table:location": "female_toilet;male_toilet", "cuisine": "dutch;crepe", "diet:gluten_free": "yes", "diet:vegan": "yes", "diet:vegetarian": "yes", "email": "dresden@kokvankok.de", "highchair": "yes", "indoor_seating": "yes", "internet_access": "wlan", "internet_access:fee": "no", "name": "KOK van KOK", "opening_hours": "Mo-Th 11:30-21:00; Fr 11:30-22:00; PH,Sa 11:00-22:00; Su 11:00-20:00", "organic": "yes", "outdoor_seating": "yes", "payment:girocard": "yes", "payment:google_pay": "yes", "payment:maestro": "yes", "payment:mastercard": "yes", "payment:paypal": "yes", "payment:v_pay": "yes", "payment:visa": "yes", "phone": "+49 351 48486464", "takeaway": "yes", "toilets": "yes", "toilets:access": "customers", "toilets:wheelchair": "no", "website": "https://dresden.kokvankok.de", "website:menu": "https://cdn.gastronovi.com/de/files/download/menu-de-46271-kok-van-kok-4395745-speisen-pdf?hash=a8789d71cc823a7c559820e29aa67eb01138d39ec1174894ff8447977c8181f7", "wheelchair": "yes"}}, {"type": "node", "id": 8378156322, "lat": 51.0514333, "lon": 13.7394826, "tags": {"addr:city": "Dresden", "addr:housenumber": "6", "addr:postcode": "01067", "addr:street": "J\u00fcdenhof", "amenity": "restaurant", "changing_table": "no", "cuisine": "ramen;bowl", "diet:vegan": "yes", "diet:vegetarian": "yes", "highchair": "yes", "indoor_seating": "yes", "name": "Umaii Ramenbar", "opening_hours": "Mo-Su 11:30-22:30", "outdoor_seating": "yes", "payment:girocard": "yes", "takeaway": "yes", "toilets:wheelchair": "no", "website": "https://www.umaii.de/dresden-neumarkt/", "wheelchair": "yes", "wheelchair:description:de": "Treppe zur Toilette"}}, {"type": "node", "id": 9999805594, "lat": 51.0529476, "lon": 13.7373773, "tags": {"addr:housenumber": "27", "addr:street": "Schlo\u00dfstra\u00dfe", "amenity": "restaurant", "contact:email": "info@anna-dresden.de", "name": "Anna", "opening_hours": "Mo, We-Sa 09:00-22:00; Su 09:00-18:00", "outdoor_seating": "yes", "phone": "+49 351 79511535", "website": "https://anna-dresden.de"}}, {"type": "node", "id": 10074663291, "lat": 51.0487613, "lon": 13.7406329, "tags": {"addr:city": "Dresden", "addr:housenumber": "3", "addr:postcode": "01067", "addr:street": "Kreuzstra\u00dfe", "amenity": "restaurant", "indoor_seating": "yes", "name": "Gianhi's Fried Chicken", "opening_hours": "Mo-Su 12:00-21:00", "outdoor_seating": "yes", "payment:cash": "yes", "payment:girocard": "yes", "takeaway": "yes", "toilets": "yes", "wheelchair": "limited", "wheelchair:description:de": "Stufen vor dem Eingang"}}, {"type": "node", "id": 10074663292, "lat": 51.0486694, "lon": 13.741001, "tags": {"amenity": "restaurant", "cuisine": "italian", "indoor_seating": "yes", "name": "Ristorante Enoteca"}}, {"type": "node", "id": 10096037793, "lat": 51.051767, "lon": 13.7380895, "tags": {"addr:city": "Dresden", "addr:country": "DE", "addr:housenumber": "19", "addr:postcode": "01067", "addr:street": "Sch\u00f6ssergasse", "amenity": "restaurant", "contact:facebook": "https://www.facebook.com/metropolisurbanbistro/", "cuisine": "bistro;hot_dog;sandwich", "email": "info@metropolis-bistro.de", "ice_cream": "yes", "internet_access": "yes", "internet_access:fee": "no", "name": "Metropolis Urban Bistro", "opening_hours": "Mo off; Tu-Th 12:00-18:00; Fr-Su 12:00-20:00", "outdoor_seating": "yes", "phone": "+49 351 48619061", "takeaway": "yes", "website": "https://www.metropolis-bistro.de"}}, {"type": "node", "id": 10096037797, "lat": 51.0515131, "lon": 13.7375843, "tags": {"addr:city": "Dresden", "addr:country": "DE", "addr:housenumber": "10", "addr:postcode": "01067", "addr:street": "Schlo\u00dfstra\u00dfe", "amenity": "restaurant", "indoor_seating": "yes", "name": "Platzhirsch", "opening_hours": "12:00+", "outdoor_seating": "yes", "phone": "+49 351 21293939", "website": "https://platzhirsch-dresden.de/", "wheelchair:description": "Stufe am Eingang", "wheelchair:description:en": "step at entrance"}}, {"type": "node", "id": 10642652609, "lat": 51.0487869, "lon": 13.7352878, "tags": {"amenity": "restaurant", "check_date": "2023-02-10", "cuisine": "american", "level": "1", "name": "Play Off", "opening_hours": "Mo-Sa 10:00-20:00"}}, {"type": "node", "id": 10642652625, "lat": 51.050104, "lon": 13.7350359, "tags": {"amenity": "restaurant", "check_date": "2023-02-10", "cuisine": "greek", "level": "1", "name": "Taverna Akropolis", "opening_hours": "Mo-Sa 10:00-20:00"}}, {"type": "node", "id": 10680318707, "lat": 51.0546621, "lon": 13.7367006, "tags": {"amenity": "restaurant", "cuisine": "bavarian", "diet:vegan": "no", "diet:vegetarian": "yes", "dog": "yes", "highchair": "yes", "indoor_seating": "yes", "internet_access": "no", "name": "Stadtwaldschl\u00f6sschen", "outdoor_seating": "yes", "payment:girocard": "yes", "toilets": "yes", "website": "https://www.stadtwaldschloesschen.de/"}}, {"type": "way", "id": 24966644, "nodes": [271301169, 271301172, 2109087908, 2109087905, 5598589996, 2109087902, 2109087896, 2492663658, 5598589995, 2109087890, 2109087887, 2496620914, 5598589993, 5598589994, 2109087893, 2109087899, 271301171, 2496620931, 2496620932, 2496620936, 2496620939, 271301170, 2496620945, 2109087910, 3822756369, 2109087926, 5598589992, 5598589991, 2496620906, 5598589990, 2109087929, 5598589989, 2109087935, 2109087939, 5598589998, 2496620911, 5598589997, 2109087937, 2109087932, 271301169], "tags": {"addr:city": "Dresden", "addr:country": "DE", "addr:housenumber": "3", "addr:postcode": "01067", "addr:street": "Theaterplatz", "amenity": "restaurant", "building": "yes", "name": "Kobalt", "phone": "+49 351 501930250", "website": "https://www.kobalt-club.de/"}}, {"type": "way", "id": 24966733, "nodes": [2199769174, 271303057, 253342888, 253342887, 2199769174], "tags": {"addr:city": "Dresden", "addr:country": "DE", "addr:housenumber": "1", "addr:postcode": "01067", "addr:street": "Terrassenufer", "amenity": "restaurant", "building": "yes", "email": "info@radeberger-spezialausschank.de", "image": "https://commons.wikimedia.org/wiki/File:Terrassenufer_1_Dresden.JPG", "name": "Radeberger Spezialausschank", "opening_hours": "Mo-Su 00:00-01:00,11:00-24:00", "phone": "+49 351 4848660", "toilets:wheelchair": "no", "wheelchair": "no", "wikipedia": "de:Schiffahrtsgeb\u00e4ude (Dresden)"}}, {"type": "way", "id": 235503093, "nodes": [248818339, 248818340, 2435547108, 2435547109, 2435547112, 2435547110, 2435547111, 248818339], "tags": {"addr:country": "DE", "addr:housenumber": "4", "addr:postcode": "01067", "addr:street": "Br\u00fchlscher Garten", "amenity": "restaurant", "building": "yes", "contact:fax": "+49 351 2630781", "contact:phone": "+49 351 4818901", "contact:website": "https://www.bruehlscher-garten.de/", "cuisine": "regional;ice_cream", "diet:vegetarian": "yes", "height": "3", "name": "Br\u00fchlscher Garten", "opening_hours": "PH,Mo-Su 07:30-22:00+", "outdoor_seating": "yes", "phone": "+49 351 4818901", "roof:colour": "#9E9A7F", "roof:shape": "flat", "wheelchair": "limited"}}]}