{"version": 0.6, "generator": "Overpass API 0.7.60.2 e4cf9f7a", "osm3s": {"timestamp_osm_base": "2023-04-30T01:54:53Z", "copyright": "The data included in this document is from www.openstreetmap.org. The data is made available under ODbL."}, "elements": [{"type": "node", "id": 303789353, "lat": 53.107217, "lon": 8.9009195, "tags": {"addr:city": "Bremen", "addr:country": "DE", "addr:housenumber": "4", "addr:postcode": "28357", "addr:street": "Am Lehester Deich", "amenity": "restaurant", "contact:phone": "+49 421 258881", "cuisine": "greek", "name": "Melia", "opening_hours": "11:30-24:00", "toilets:wheelchair": "no", "wheelchair": "no"}}, {"type": "node", "id": 314793696, "lat": 53.1348032, "lon": 8.8987539, "tags": {"addr:city": "Bremen", "addr:country": "DE", "addr:housenumber": "73", "addr:postcode": "28357", "addr:street": "Warfer Landstra\u00dfe", "amenity": "restaurant", "name": "Borgfelder Landhaus", "opening_hours": "\"only for events\"", "outdoor_seating": "yes", "phone": "+49 421 2777147", "toilets:wheelchair": "yes", "website": "https://www.borgfelder-landhaus.de/", "wheelchair": "yes", "wheelchair:description": "WC nur erreichbar, wenn der Biergarten ge\u00f6ffnet hat."}}, {"type": "node", "id": 665395542, "lat": 53.1182897, "lon": 8.8964552, "tags": {"amenity": "restaurant", "contact:phone": "+49 421 56643215", "contact:website": "http://kalimera-bremen.de/", "cuisine": "greek", "name": "Kalimera", "opening_hours": "We-Mo 11:30-14:30,17:00-23:00; Tu off", "wheelchair": "yes"}}, {"type": "node", "id": 691603553, "lat": 53.1138145, "lon": 8.8961261, "tags": {"amenity": "restaurant", "cuisine": "german", "name": "Gastst\u00e4tte L\u00fchr"}}, {"type": "node", "id": 800152507, "lat": 53.1412453, "lon": 8.9139088, "tags": {"addr:city": "Lilienthal", "addr:housenumber": "25a", "addr:postcode": "28865", "addr:street": "Klosterstra\u00dfe", "amenity": "restaurant", "cuisine": "german;italian", "email": "info@restaurant-boccia.de", "name": "Boccia", "opening_hours": "Mo-We 09:00-18:00;Th-Sa 09:00-22:00;Su 10:00-22:00", "phone": "+49 4298 698220", "toilets:wheelchair": "yes", "wheelchair": "yes"}}, {"type": "node", "id": 850159454, "lat": 53.1322448, "lon": 8.8908259, "tags": {"addr:city": "Bremen", "addr:country": "DE", "addr:housenumber": "22", "addr:postcode": "28357", "addr:street": "Borgfelder Deich", "amenity": "restaurant", "contact:email": "landgasthof-heuer@online.de", "contact:phone": "+49 421 270423", "contact:website": "http://www.landgasthof-heuer.de", "cuisine": "german", "name": "Landgasthof Heuer", "phone": "+49 421 270423", "toilets:wheelchair": "no", "tourism": "guest_house", "website": "https://www.landgasthof-heuer.de", "wheelchair": "limited"}}, {"type": "node", "id": 1821346873, "lat": 53.1239343, "lon": 8.8997634, "tags": {"addr:city": "Bremen", "addr:country": "DE", "addr:housenumber": "30a", "addr:postcode": "28357", "addr:street": "Borgfelder Heerstra\u00dfe", "amenity": "restaurant", "name": "Mikes", "old_name": "Fliewat\u00fc\u00fc\u00fct", "wheelchair": "limited"}}, {"type": "node", "id": 2104945423, "lat": 53.1412747, "lon": 8.9074961, "tags": {"amenity": "restaurant", "cuisine": "italian", "name": "La Vita", "wheelchair": "limited"}}, {"type": "node", "id": 2419252604, "lat": 53.1118446, "lon": 8.8934883}, {"type": "node", "id": 2419252611, "lat": 53.1118828, "lon": 8.8933777}, {"type": "node", "id": 2419252612, "lat": 53.1118846, "lon": 8.8935267}, {"type": "node", "id": 2419252641, "lat": 53.1119228, "lon": 8.893416}, {"type": "node", "id": 2466677526, "lat": 53.1266609, "lon": 8.9022764, "tags": {"addr:city": "Bremen", "addr:housenumber": "44", "addr:postcode": "28357", "addr:street": "Borgfelder Heerstra\u00dfe", "amenity": "restaurant", "name": "Salvia", "opening_hours": "Su 11:30-22:00; Tu-Sa 17:00-22:00", "website": "http://salvia-restaurant.de/", "wheelchair": "yes"}}, {"type": "node", "id": 2582852888, "lat": 53.1411199, "lon": 8.913816}, {"type": "node", "id": 2582852893, "lat": 53.1411514, "lon": 8.91394}, {"type": "node", "id": 2582852929, "lat": 53.1411751, "lon": 8.9138923}, {"type": "node", "id": 2582852944, "lat": 53.1411869, "lon": 8.9136809}, {"type": "node", "id": 2582853019, "lat": 53.1412111, "lon": 8.9140224}, {"type": "node", "id": 2582853072, "lat": 53.1412349, "lon": 8.9139747}, {"type": "node", "id": 2582853101, "lat": 53.1412474, "lon": 8.9139919}, {"type": "node", "id": 2582853192, "lat": 53.1413144, "lon": 8.9138568}, {"type": "node", "id": 2582853411, "lat": 53.1415551, "lon": 8.9089803}, {"type": "node", "id": 2582853431, "lat": 53.1416321, "lon": 8.9092135}, {"type": "node", "id": 2582853434, "lat": 53.1416413, "lon": 8.9089012}, {"type": "node", "id": 2582853450, "lat": 53.1417184, "lon": 8.9091343}, {"type": "node", "id": 2582853564, "lat": 53.1417884, "lon": 8.911066}, {"type": "node", "id": 2582853601, "lat": 53.1418129, "lon": 8.9107542}, {"type": "node", "id": 2582853726, "lat": 53.1419075, "lon": 8.9110919}, {"type": "node", "id": 2582853759, "lat": 53.1419319, "lon": 8.9107801}, {"type": "node", "id": 2707214755, "lat": 53.1406686, "lon": 8.9063284, "tags": {"amenity": "restaurant", "cuisine": "swedish", "name": "Amendssons Nordische Spezialit\u00e4ten", "opening_hours": "Mo 09:00-14:30; Tu,Fr 09:00-18:00; Sa 09:00-13:00", "toilets:wheelchair": "no", "wheelchair": "yes"}}, {"type": "node", "id": 2707214760, "lat": 53.1411036, "lon": 8.9089295, "tags": {"addr:city": "Lilienthal", "addr:postcode": "28865", "amenity": "restaurant", "cuisine": "italian", "name": "Il Padrino"}}, {"type": "node", "id": 2707214768, "lat": 53.1413605, "lon": 8.9077923, "tags": {"addr:housenumber": "53", "addr:street": "Hauptstra\u00dfe", "amenity": "restaurant", "cuisine": "italian", "name": "Pizzeria \"Da Luciano\"", "opening_hours": "Tu-Su 11:00-22:00", "phone": "+49 4298 2199", "wheelchair": "no"}}, {"type": "node", "id": 2755859906, "lat": 53.1412642, "lon": 8.913958}, {"type": "node", "id": 2755859913, "lat": 53.141306, "lon": 8.9138737}, {"type": "node", "id": 2755859915, "lat": 53.1413346, "lon": 8.9140552}, {"type": "node", "id": 2755859921, "lat": 53.1413764, "lon": 8.9139709}, {"type": "node", "id": 3890146755, "lat": 53.1261269, "lon": 8.9020099, "tags": {"addr:city": "Bremen", "addr:country": "DE", "addr:postcode": "28357", "addr:street": "Borgfelder Heerstra\u00dfe", "amenity": "restaurant", "cuisine": "sandwich", "indoor_seating": "yes", "name": "Crepes Suzette", "opening_hours": "Mo-Sa 12:00-21:00", "outdoor_seating": "yes", "phone": "+49 421 69677366", "toilets:wheelchair": "yes", "wheelchair": "yes"}}, {"type": "node", "id": 5751331621, "lat": 53.123944, "lon": 8.899761, "tags": {"addr:city": "Bremen", "addr:housenumber": "30a", "addr:postcode": "28357", "addr:street": "Borgfelder Heerstra\u00dfe", "amenity": "restaurant", "name": "Mikes", "phone": "+49 421 27601160", "toilets:wheelchair": "yes", "website": "https://www.mikes-bremen.de/", "wheelchair": "yes"}}, {"type": "node", "id": 10169435067, "lat": 53.1401244, "lon": 8.9050597, "tags": {"amenity": "restaurant", "cuisine": "greek", "name": "Eli\u00e1"}}, {"type": "way", "id": 233558210, "nodes": [2419252612, 2419252604, 2419252611, 2419252641, 2419252612], "tags": {"amenity": "restaurant", "building": "yes", "name": "Crepes Suzette"}}, {"type": "way", "id": 252187429, "nodes": [2755859906, 2755859915, 2755859921, 2755859913, 2582853192, 2582852944, 2582852888, 2582852929, 2582852893, 2582853019, 2582853072, 2582853101, 2755859906], "tags": {"addr:city": "Lilienthal", "addr:country": "DE", "addr:housenumber": "25 a", "addr:postcode": "28865", "addr:street": "Klosterstra\u00dfe", "amenity": "restaurant", "building": "yes", "name": "boccia"}}, {"type": "way", "id": 252187499, "nodes": [2582853434, 2582853411, 2582853431, 2582853450, 2582853434], "tags": {"addr:city": "Lilienthal", "addr:country": "DE", "addr:housenumber": "5", "addr:postcode": "28865", "addr:street": "Klosterstra\u00dfe", "amenity": "restaurant", "building": "yes", "cuisine": "italian", "level": "0", "name": "Mixx", "opening_hours": "Mo-Su 17:00-22:00", "outdoor_seating": "yes", "payment:cash": "yes", "payment:girocard": "yes", "phone": "+49 4298 5775", "smoking": "outside", "source": "https://www.restaurant-mixx.de/", "wheelchair": "no"}}, {"type": "way", "id": 252187592, "nodes": [2582853726, 2582853564, 2582853601, 2582853759, 2582853726], "tags": {"addr:city": "Lilienthal", "addr:country": "DE", "addr:housenumber": "12", "addr:postcode": "28865", "addr:street": "Klosterstra\u00dfe", "amenity": "restaurant", "building": "yes", "name": "Da Alessio im Klosterhof"}}]}