{"version": 0.6, "generator": "Overpass API 0.7.60.2 e4cf9f7a", "osm3s": {"timestamp_osm_base": "2023-04-30T01:49:34Z", "copyright": "The data included in this document is from www.openstreetmap.org. The data is made available under ODbL."}, "elements": [{"type": "node", "id": 269083785, "lat": 53.0723084, "lon": 8.8094364, "tags": {"addr:city": "Bremen", "addr:housenumber": "20", "addr:postcode": "28195", "addr:street": "Hinter der Holzpforte", "amenity": "restaurant", "cuisine": "regional;german", "email": "reservierung@kleiner-olymp.de", "fax": "+49 421 3649586", "name": "Kleiner Olymp", "opening_hours": "Mo-Su 16:00-23:00", "operator": "Familie Kolsch", "outdoor_seating": "yes", "phone": "+49 421 326667", "smoking": "outside", "takeaway": "no", "website": "http://www.kleiner-olymp.de/", "wheelchair": "no"}}, {"type": "node", "id": 287963387, "lat": 53.0726652, "lon": 8.810366, "tags": {"addr:city": "Bremen", "addr:housenumber": "3-4", "addr:postcode": "28195", "addr:street": "Schnoor", "amenity": "restaurant", "capacity": "150", "check_date": "2023-03-18", "check_date:opening_hours": "2023-03-18", "cuisine": "spanish", "name": "Aioli", "opening_hours": "Mo-Su 12:00+", "phone": "+49 421 323839", "website": "http://www.aioli-bremen.de", "wheelchair": "limited"}}, {"type": "node", "id": 287963388, "lat": 53.0726429, "lon": 8.809982, "tags": {"addr:city": "Bremen", "addr:housenumber": "38", "addr:postcode": "28195", "addr:street": "Schnoor", "alt_name": "Katzencaf\u00e9", "amenity": "restaurant", "name": "Katzen-Caf\u00e9", "opening_hours": "Mo-Su 12:00-24:00", "phone": "+49 421 326621", "toilets:wheelchair": "no", "website": "http://www.katzen-cafe.de", "wheelchair": "no", "wikidata": "Q41793044"}}, {"type": "node", "id": 288730729, "lat": 53.0779544, "lon": 8.8021351, "tags": {"amenity": "restaurant", "contact:email": "info@mexcal-restaurant.de", "contact:fax": "+49 421 1691821", "contact:phone": "+49 421 170201", "contact:website": "http://www.mexcal-restaurant.de/", "cuisine": "mexican", "name": "Mexcal", "opening_hours": "Mo-Fr 17:00+, Tu-Fr 12:00-15:00, Sa 12:00+, PH,Su 13:00+", "wheelchair": "limited", "wheelchair:description": "Einige Pl\u00e4tze sind gut zu erreichen. Toiletten nicht."}}, {"type": "node", "id": 288731139, "lat": 53.0766481, "lon": 8.8022652, "tags": {"amenity": "restaurant", "email": "info@restaurant-luv.de", "name": "Luv", "opening_hours": "Mo-Fr 11:00+; Sa, Su, PH 10:00+", "phone": "+49 421 1655599", "website": "https://restaurant-luv.de/", "wheelchair": "limited"}}, {"type": "node", "id": 412299686, "lat": 53.0772425, "lon": 8.8013016, "tags": {"amenity": "restaurant", "cuisine": "mexican", "diet:vegan": "yes", "diet:vegetarian": "yes", "name": "Enchilada", "opening_hours": "Mo-Tu 17:00+, Fr 15:00+, Sa,Su,PH 12:00+", "phone": "+49 421 1685400", "website": "https://bremen.enchilada.de/", "wheelchair": "no"}}, {"type": "node", "id": 412299687, "lat": 53.0769321, "lon": 8.8026159, "tags": {"amenity": "restaurant", "contact:mobile": "+49 173 7336827", "contact:phone": "+49 421 9579958", "contact:website": "https://gallonero-bremen.com/", "cuisine": "italian", "name": "Gallo Nero", "opening_hours": "Mo-Fr 12:00-14:30,17:30-23:00; Sa 17:00+", "wheelchair": "no"}}, {"type": "node", "id": 412299688, "lat": 53.0780289, "lon": 8.8001003, "tags": {"addr:housenumber": "32", "addr:street": "Schlachte", "amenity": "restaurant", "bar": "yes", "brand": "Cafe & Bar Celona", "brand:wikidata": "Q1025499", "email": "bremen@cafe-bar-celona.de", "indoor_seating": "yes", "name": "Cafe & Bar Celona", "opening_hours": "Su-Th 09:00-01:00, Fr,Sa 09:00-02:00", "outdoor_seating": "yes", "toilets:wheelchair": "yes", "website": "http://www.cafe-bar-celona.de/", "wheelchair": "yes"}}, {"type": "node", "id": 458181680, "lat": 53.075413, "lon": 8.8036015, "tags": {"amenity": "restaurant", "cuisine": "italian", "email": "mail@osteria-bremen.de", "fax": "+49 421 3398208", "name": "Osteria", "opening_hours": "Mo-Sa 12:00-15:00,18:00-23:00, Su 18:00+", "phone": "+49 421 3398207", "website": "http://www.osteria-bremen.de/", "wheelchair": "no"}}, {"type": "node", "id": 500011534, "lat": 53.0750054, "lon": 8.8055248, "tags": {"addr:city": "Bremen", "addr:housenumber": "3-5", "addr:postcode": "28195", "addr:street": "B\u00f6ttcherstra\u00dfe", "alt_name": "St\u00e4ndige Vertretung im Flett B\u00f6ttcherstra\u00dfe", "amenity": "restaurant", "cuisine": "german", "email": "bremen@staev.de", "name": "St\u00e4ndige Vertretung im Flett", "opening_hours": "Tu-Th 12:00-23:00; Fr-Sa 12:00-24:00", "opening_hours:kitchen": "Tu-Th 12:00-21:00; Fr-Sa 12:00-21:00", "operator": "St\u00e4ndige Vertretung im Flett Gastronomie GmbH", "phone": "+49 421 320995", "short_name": "St\u00e4V", "website": "https://www.staev.de/", "wheelchair": "limited"}}, {"type": "node", "id": 521908858, "lat": 53.0760874, "lon": 8.807377, "tags": {"addr:city": "Bremen", "addr:postcode": "28195", "addr:street": "Am Markt", "amenity": "restaurant", "contact:phone": "+49 421 321676", "contact:website": "https://www.ratskeller-bremen.de/", "cuisine": "regional", "diet:vegan": "yes", "diet:vegetarian": "yes", "indoor": "yes", "level": "-1", "name": "Bremer Ratskeller", "opening_hours": "Mo-Su 12:00-22:00", "opening_hours:kitchen": "Mo-Su 12:00-21:30", "toilets:wheelchair": "yes", "wheelchair": "yes", "wheelchair:description": "Mittlerweile gibt es einen Hintereingang mit nachtr\u00e4glich eingebautem Plattform-Lift. Personal n\u00f6tig.", "wikidata": "Q884013", "wikipedia": "de:Bremer Ratskeller"}}, {"type": "node", "id": 524424350, "lat": 53.0787698, "lon": 8.8070874, "tags": {"amenity": "restaurant", "brand": "Vapiano", "brand:wikidata": "Q506252", "brand:wikipedia": "en:Vapiano", "cuisine": "italian", "diet:vegetarian": "yes", "name": "Vapiano", "opening_hours": "Su-Th 11:00-21:00; Fr,Sa 11:00-22:00", "toilets:wheelchair": "no", "website": "https://www.vapiano.de/", "wheelchair": "no", "wheelchair:description": "Eine Stufe um reinzukommen, Tische meist hoch, Toiletten im Keller."}}, {"type": "node", "id": 567119239, "lat": 53.0797846, "lon": 8.799638, "tags": {"addr:city": "Bremen", "addr:country": "DE", "addr:housenumber": "25-26", "addr:postcode": "28195", "addr:street": "Hankenstra\u00dfe", "alt_name": "Kabuki Sushi-Bar", "amenity": "restaurant", "contact:email": "info@kabuki-bremen.de", "contact:phone": "+49 421 1632062", "contact:website": "http://kabuki-bremen.de/", "cuisine": "japanese;sushi", "currency:BCH": "yes", "diet:vegan": "yes", "diet:vegetarian": "yes", "name": "Kabuki", "opening_hours": "Mo-Su 12:00-15:00, 17:30-23:00", "operator": "Le Thanh Hung", "payment:cash": "yes", "payment:credit_cards": "no", "payment:debit_cards": "no", "payment:note": "nur Barzahlung m\u00f6glich!", "phone": "+494211632062", "wheelchair": "limited"}}, {"type": "node", "id": 567119247, "lat": 53.0798286, "lon": 8.7997335, "tags": {"amenity": "restaurant", "contact:phone": "+49 421 17836999", "contact:website": "http://vietquanbremen.cafelists.com/", "cuisine": "vietnamese", "name": "Viet Quan", "opening_hours": "Mo-Fr 12:00-15:00, 17:00-22:30; Sa 12:00-22:30", "wheelchair": "no"}}, {"type": "node", "id": 567119258, "lat": 53.0799146, "lon": 8.8000509, "tags": {"addr:city": "Bremen", "addr:country": "DE", "addr:housenumber": "20-22", "addr:postcode": "28195", "addr:street": "Hankenstra\u00dfe", "amenity": "restaurant", "contact:email": "info@nanking-bremen.de", "contact:phone": "+49 421 171825", "contact:website": "http://nanking-bremen.de/", "cuisine": "chinese", "name": "Nanking", "opening_hours": "Tu-Su 11:30-22:00", "takeaway": "yes", "wheelchair": "limited"}}, {"type": "node", "id": 567119263, "lat": 53.0784353, "lon": 8.7988578, "tags": {"addr:city": "Bremen", "addr:housenumber": "36", "addr:street": "Schlachte", "amenity": "restaurant", "contact:phone": "+49 421 322860", "contact:website": "https://www.designhotel-ueberfluss.de/essentrinken/", "name": "\u00dcberFluss Grill", "opening_hours": "Mo-Fr 07:00+; Sa 08:00+; Su 08:00-17:00", "wheelchair": "limited"}}, {"type": "node", "id": 567119278, "lat": 53.0807488, "lon": 8.8006539, "tags": {"addr:city": "Bremen", "addr:housenumber": "10", "addr:postcode": "28195", "addr:street": "Abbentorstra\u00dfe", "amenity": "restaurant", "contact:phone": "+49 421 13627", "contact:website": "https://koreahaus-bremen.de", "cuisine": "korean", "diet:vegetarian": "yes", "name": "Korea Haus", "opening_hours": "Mo-Sa 12:00-14:30,18:00-22:00", "wheelchair": "no"}}, {"type": "node", "id": 567119283, "lat": 53.0796072, "lon": 8.7991852, "tags": {"amenity": "restaurant", "cuisine": "greek", "name": "Plaka", "opening_hours": "Tu-Su 11:30-14:30,17:30-22:30", "website": "http://www.plaka-bremen.de/", "wheelchair": "no"}}, {"type": "node", "id": 567119288, "lat": 53.0797251, "lon": 8.7994356, "tags": {"amenity": "restaurant", "name": "Little Saigon - Vietnamese street food", "opening_hours": "Tu-Su 11:30-15:00,17:30-22:00"}}, {"type": "node", "id": 567119295, "lat": 53.079753, "lon": 8.7995381, "tags": {"amenity": "restaurant", "cuisine": "african", "diet:vegetarian": "no", "name": "Christy's", "opening_hours": "Mo off; Tu-Fr 15:00-23:00; Sa,Su 16:00-24:00", "website": "http://www.christys-bremen.de/", "wheelchair": "limited"}}, {"type": "node", "id": 567119322, "lat": 53.079028, "lon": 8.7978098, "tags": {"addr:city": "Bremen", "addr:country": "DE", "addr:housenumber": "41", "addr:postcode": "28195", "addr:street": "Schlachte", "amenity": "restaurant", "cuisine": "italian", "name": "Bellini", "opening_hours": "Mo-Su 12:00-23:00", "toilets:wheelchair": "no", "website": "http://bellini-bremen.de/", "wheelchair": "no"}}, {"type": "node", "id": 571259212, "lat": 53.0782455, "lon": 8.7994155, "tags": {"addr:city": "Bremen", "addr:country": "DE", "addr:housenumber": "68", "addr:postcode": "28195", "addr:street": "Langenstra\u00dfe", "amenity": "restaurant", "check_date": "2023-04-01", "fax": "+49 421 707690", "name": "Bolero", "opening_hours": "Mo-Th 11:00-24:00;Fr 11:00-24:00;Sa 00:00-01:00,16:00-24:00;Su 00:00-01:00,10:00-24:00", "phone": "+49 421 707670", "website": "https://bremen.bolerobar.de/", "wheelchair": "no", "wheelchair:description": "Viele Stufen"}}, {"type": "node", "id": 571264515, "lat": 53.0776563, "lon": 8.8007441, "tags": {"addr:city": "Bremen", "addr:country": "DE", "addr:housenumber": "30", "addr:postcode": "28195", "addr:street": "Schlachte", "amenity": "restaurant", "contact:phone": "+49 421 1690691", "contact:website": "https://paulaners-schlachte.de/", "cuisine": "german", "name": "Paulaner's", "opening_hours": "Mo-Su,PH 11:00+", "toilets:wheelchair": "no", "wheelchair": "yes"}}, {"type": "node", "id": 577861550, "lat": 53.0749912, "lon": 8.8062515, "tags": {"addr:city": "Bremen", "addr:country": "DE", "addr:housenumber": "12;13", "addr:postcode": "28195", "addr:street": "Hinter dem Sch\u00fctting", "amenity": "restaurant", "brewery": "Sch\u00fcttinger", "contact:phone": "+49 421 3376633", "cuisine": "regional", "happy_hours": "Mo-Fr 17:00-20:00", "happy_hours:description": "0,2L Bier f\u00fcr 1\u20ac statt 1,8\u20ac und 0,4L Bier f\u00fcr 2\u20ac statt 3,6\u20ac", "microbrewery": "yes", "name": "Sch\u00fcttinger Gasthausbrauerei", "opening_hours": "Mo-Fr 12:00+; Sa 11:00+; Su 11:00-22:00", "pay_tv:sky": "yes", "toilets:wheelchair": "no", "website": "http://www.schuettinger.de", "wheelchair": "no", "wifi": "no"}}, {"type": "node", "id": 612129718, "lat": 53.0803063, "lon": 8.797609, "tags": {"amenity": "restaurant", "cuisine": "persian", "diet:vegan": "yes", "diet:vegetarian": "yes", "name": "Apadana", "opening_hours": "Tu-Fr 17:00-22:30; Sa,Su 14:00-22:30; Mo off", "phone": "+49 421 5775997", "website": "http://www.apadana-bremen.de", "wheelchair": "limited"}}, {"type": "node", "id": 613450186, "lat": 53.0779526, "lon": 8.801458, "tags": {"addr:city": "Bremen", "addr:housenumber": "62-66", "addr:street": "Martinistra\u00dfe", "amenity": "restaurant", "contact:phone": "+49 421 17839666", "cuisine": "asian", "diet:vegetarian": "no", "name": "JagoYa", "opening_hours": "Mo-Fr 12:00-15:00,17:30-22:30; Sa 14:30-22:30; Su 17:00-22:30", "wheelchair": "no"}}, {"type": "node", "id": 617089058, "lat": 53.0763634, "lon": 8.805022, "tags": {"addr:city": "Bremen", "addr:country": "DE", "addr:housenumber": "14", "addr:postcode": "28195", "addr:street": "Langenstra\u00dfe", "amenity": "restaurant", "contact:phone": "+49 421 323484", "contact:website": "https://www.pochana-thai.de/", "cuisine": "thai", "indoor_seating": "yes", "name": "pochana thai", "opening_hours": "Mo-Sa 12:00-15:00,18:00-22:00", "outdoor_seating": "yes", "wheelchair": "limited"}}, {"type": "node", "id": 617091012, "lat": 53.0762884, "lon": 8.8051675, "tags": {"addr:city": "Bremen", "addr:country": "DE", "addr:housenumber": "10-12", "addr:postcode": "28195", "addr:street": "Langenstra\u00dfe", "amenity": "restaurant", "contact:phone": "+49 421 56518536", "contact:website": "https://jackie-su.de/", "cuisine": "asian", "name": "Jackie Su", "opening_hours": "Mo-Sa 12:00-21:00", "wheelchair": "limited", "wheelchair:description": "Eine Stufe, um rein zu kommen. Haben eine Behindertentoilette, die aber als Abstellkammer genutzt wird."}}, {"type": "node", "id": 618316450, "lat": 53.0747301, "lon": 8.8052267, "tags": {"addr:city": "Bremen", "addr:country": "DE", "addr:housenumber": "2", "addr:postcode": "28195", "addr:street": "B\u00f6ttcherstra\u00dfe", "amenity": "restaurant", "cuisine": "sushi", "diet:vegetarian": "yes", "email": "mail@captain-sushi.de", "name": "Captain Sushi", "opening_hours": "Mo-Th 18:00-22:00; Fr,Sa 12:00-22:00; PH,Su off", "website": "http://www.captain-sushi.de/", "wheelchair": "limited"}}, {"type": "node", "id": 666951749, "lat": 53.0748859, "lon": 8.8066089, "tags": {"amenity": "restaurant", "cuisine": "regional", "diet:vegetarian": "no", "drink:kr\u00e4usen": "serve", "microbrewery": "yes", "name": "Sch\u00fcttinger", "wheelchair": "limited"}}, {"type": "node", "id": 699745130, "lat": 53.0760919, "lon": 8.8069637, "tags": {"addr:city": "Bremen", "addr:country": "DE", "addr:housenumber": "1", "addr:postcode": "28195", "addr:street": "Am Markt", "amenity": "restaurant", "cuisine": "german", "diet:vegetarian": "yes", "indoor_seating": "yes", "name": "Beck's am Markt", "opening_hours": "Su-Th 10:00-22:00; Fr,Sa 10:00-23:00", "outdoor_seating": "yes", "wheelchair": "no"}}, {"type": "node", "id": 708921535, "lat": 53.0770602, "lon": 8.8081057, "tags": {"addr:city": "Bremen", "addr:country": "DE", "addr:housenumber": "1", "addr:postcode": "28195", "addr:street": "Queerenstra\u00dfe", "amenity": "restaurant", "cuisine": "international", "name": "Q1 - Metropolitan kitchen & bar", "opening_hours": "Mo-Sa 12:00-22:00; Su,PH off", "phone": "+49 421 3228590", "toilets:wheelchair": "yes", "website": "https://www.q1-restaurant.de/", "wheelchair": "yes"}}, {"type": "node", "id": 714331540, "lat": 53.073534, "lon": 8.8114169, "tags": {"addr:city": "Bremen", "addr:country": "DE", "addr:housenumber": "30", "addr:postcode": "28195", "addr:street": "Ostertorstra\u00dfe", "amenity": "restaurant", "check_date:opening_hours": "2022-08-23", "contact:phone": "+49 421 325050", "contact:website": "https://comturei.jimdo.com/", "name": "Comturei", "opening_hours": "Mo-Su 12:00-15:00,18:00+", "wheelchair": "no"}}, {"type": "node", "id": 714331553, "lat": 53.0736005, "lon": 8.8070167, "tags": {"amenity": "restaurant", "name": "Layalina", "opening_hours": "Mo-Su 11:00-22:00"}}, {"type": "node", "id": 767285161, "lat": 53.0808406, "lon": 8.8053163, "tags": {"amenity": "restaurant", "contact:phone": "+49 421 12150", "contact:website": "http://www.tenduere.de/", "cuisine": "turkish", "diet:halal": "only", "name": "Tend\u00fcre", "opening_hours": "Mo-Fr 12:00-15:00,18:00-23:00; PH,Sa,Su 12:00-23:00", "wheelchair": "no", "wheelchair:description": "Es gibt eine Rampe, welche auf Anfrage geholt wird. Die Eingangsstufe muss aber von selbst \u00fcberbr\u00fcckt werden."}}, {"type": "node", "id": 828059545, "lat": 53.0728759, "lon": 8.8077071, "tags": {"addr:city": "Bremen", "addr:country": "DE", "addr:housenumber": "8", "addr:postcode": "28195", "addr:street": "Tiefer", "amenity": "restaurant", "capacity": "50", "check_date:opening_hours": "2023-03-21", "cuisine": "afghan", "diet:vegetarian": "yes", "name": "Dunia", "opening_hours:signed": "no", "smoking": "outside", "takeaway": "yes", "website": "https://www.lieferando.de/speisekarte/dunia-restaurant-tiefer", "wheelchair": "limited"}}, {"type": "node", "id": 982305336, "lat": 53.0799072, "lon": 8.8092166, "tags": {"addr:city": "Bremen", "addr:country": "DE", "addr:housenumber": "20", "addr:postcode": "28195", "addr:street": "Hillmannplatz", "amenity": "restaurant", "name": "Hillmann\u2019s Restaurant", "opening_hours": "Mo-Fr 06:30-10:30; Sa,Su 06:30-11:00; Su 12:00-15:00; Mo-Fr 12:00-14:00; Mo-Th 18:00-23:30", "phone": "+49 421 62000129", "website": "http://www.hillmanns-restaurant.de", "wheelchair": "yes", "wheelchair:description": "Das Hillmann's befindet sich im 1. Stock des Hotels mit wunderbaren Blick \u00fcber die gr\u00fcnen Wallanlagen. Bequem \u00fcber Fahrst\u00fchle barrierefrei erreichbar."}}, {"type": "node", "id": 1269960750, "lat": 53.0767378, "lon": 8.810047}, {"type": "node", "id": 1269960786, "lat": 53.076857, "lon": 8.8098311}, {"type": "node", "id": 1269960793, "lat": 53.0766658, "lon": 8.8099369}, {"type": "node", "id": 1269960809, "lat": 53.076785, "lon": 8.809721}, {"type": "node", "id": 1270759029, "lat": 53.0802664, "lon": 8.8069559, "tags": {"addr:city": "Bremen", "addr:housenumber": "212", "addr:postcode": "28195", "addr:street": "Am Wall", "amenity": "restaurant", "contact:phone": "+49 421 14466", "contact:website": "https://www.muehle-bremen.de/", "diet:vegetarian": "yes", "indoor_seating": "yes", "internet_access": "wlan", "name": "Kaffeem\u00fchle", "opening_hours": "Oct-Mar Mo-Fr 12:00-22:00; Sa, Su 9:30+; Sep, Apr Mo-Fr 9:30-22:00; Sa, Su 9:30+; May-Aug Mo-Su, PH 9:30-22:30", "outdoor_seating": "yes", "wheelchair": "yes"}}, {"type": "node", "id": 1499455887, "lat": 53.072561, "lon": 8.8133328, "tags": {"addr:city": "Bremen", "addr:country": "DE", "addr:housenumber": "207", "addr:postcode": "28195", "addr:street": "Am Wall", "amenity": "restaurant", "contact:phone": "+49 421 2440708", "contact:website": "https://www.canova-bremen.de/", "level": "-1", "name": "Canova", "opening_hours": "Tu-Sa 10:00-22:00; Su 10:00-18:00; Mo off", "operator": "MS Gastronomie & Design GmbH", "toilets:wheelchair": "yes", "wheelchair": "yes"}}, {"type": "node", "id": 1545731817, "lat": 53.0727478, "lon": 8.8096351}, {"type": "node", "id": 1545732058, "lat": 53.0726971, "lon": 8.8097681}, {"type": "node", "id": 1749752675, "lat": 53.074555, "lon": 8.804662, "tags": {"amenity": "restaurant", "cuisine": "italian", "name": "Luigi", "source": "survey", "wheelchair": "limited"}}, {"type": "node", "id": 1760027906, "lat": 53.0751591, "lon": 8.8096291}, {"type": "node", "id": 1760027911, "lat": 53.0751626, "lon": 8.8096299}, {"type": "node", "id": 1760027955, "lat": 53.0751833, "lon": 8.8096344}, {"type": "node", "id": 1760027966, "lat": 53.075191, "lon": 8.8096362}, {"type": "node", "id": 1760027980, "lat": 53.075212, "lon": 8.8096408}, {"type": "node", "id": 1760027994, "lat": 53.0752196, "lon": 8.8096425}, {"type": "node", "id": 1760028014, "lat": 53.0752405, "lon": 8.8096471}, {"type": "node", "id": 1760028019, "lat": 53.0752481, "lon": 8.8096487}, {"type": "node", "id": 1760028022, "lat": 53.0752541, "lon": 8.8096501}, {"type": "node", "id": 1760028045, "lat": 53.0752708, "lon": 8.8096538}, {"type": "node", "id": 1760028056, "lat": 53.0752744, "lon": 8.8095994}, {"type": "node", "id": 1760028059, "lat": 53.0752763, "lon": 8.8095703}, {"type": "node", "id": 1760028083, "lat": 53.0752909, "lon": 8.8093547}, {"type": "node", "id": 1765932052, "lat": 53.0726649, "lon": 8.8098043}, {"type": "node", "id": 1765932114, "lat": 53.07274, "lon": 8.8098987}, {"type": "node", "id": 1765932116, "lat": 53.0727418, "lon": 8.8099003}, {"type": "node", "id": 1765932120, "lat": 53.0727454, "lon": 8.8099025}, {"type": "node", "id": 1765932128, "lat": 53.072752, "lon": 8.8098679}, {"type": "node", "id": 1765932131, "lat": 53.0727557, "lon": 8.809871}, {"type": "node", "id": 1765932132, "lat": 53.0727582, "lon": 8.8098454}, {"type": "node", "id": 1765932149, "lat": 53.0727591, "lon": 8.8098437}, {"type": "node", "id": 1765932151, "lat": 53.0727595, "lon": 8.8098466}, {"type": "node", "id": 1765932154, "lat": 53.0727601, "lon": 8.8098446}, {"type": "node", "id": 1765932158, "lat": 53.0727812, "lon": 8.8097785}, {"type": "node", "id": 1765932161, "lat": 53.0727818, "lon": 8.8097766}, {"type": "node", "id": 1765932162, "lat": 53.0727821, "lon": 8.8097794}, {"type": "node", "id": 1765932164, "lat": 53.0727874, "lon": 8.8097818}, {"type": "node", "id": 1765932166, "lat": 53.0727954, "lon": 8.8097389}, {"type": "node", "id": 1765932168, "lat": 53.0728069, "lon": 8.8096956}, {"type": "node", "id": 1765932170, "lat": 53.0728, "lon": 8.8097431}, {"type": "node", "id": 1765932192, "lat": 53.0728072, "lon": 8.8097002}, {"type": "node", "id": 1765932195, "lat": 53.0728076, "lon": 8.8097007}, {"type": "node", "id": 1765932197, "lat": 53.0728083, "lon": 8.8096972}, {"type": "node", "id": 1910307980, "lat": 53.0735757, "lon": 8.8102665, "tags": {"addr:housenumber": "13", "addr:street": "Dechanatstra\u00dfe", "amenity": "restaurant", "name": "mensa13", "opening_hours": "Mo-Fr 11:30-14:30; PH off", "operator": "Studentenwerk Bremen", "phone": "+49 42195951430", "website": "http://mensa13.de/", "wheelchair": "limited"}}, {"type": "node", "id": 1973212058, "lat": 53.0768917, "lon": 8.801826, "tags": {"addr:city": "Bremen", "addr:country": "DE", "addr:housenumber": "19-20", "addr:postcode": "28195", "addr:street": "Schlachte", "amenity": "restaurant", "contact:phone": "+49 421 1689192", "contact:website": "http://www.feldmanns-bierhaus.de/", "cuisine": "regional", "name": "Feldmann's Bierhaus", "opening_hours": "Mo-Fr 11:00+, Sa 10:00+, Su,PH 10:30+", "outdoor_seating": "yes", "wheelchair": "no"}}, {"type": "node", "id": 2176238450, "lat": 53.0752828, "lon": 8.8094705}, {"type": "node", "id": 2188970252, "lat": 53.0752903, "lon": 8.8093627}, {"type": "node", "id": 2283633580, "lat": 53.075534, "lon": 8.8054552, "tags": {"addr:city": "Bremen", "addr:country": "DE", "addr:housenumber": "2", "addr:postcode": "28195", "addr:street": "Bredenstra\u00dfe", "amenity": "restaurant", "email": "info@restaurant-alto.de", "name": "Alto", "opening_hours": "Mo-Fr 06:30-11:00; Sa 07:00-11:00; Su 07:00-14:00; Mo-Sa 12:00-15:00; Mo-Su 18:00-22:00", "toilets:wheelchair": "yes", "website": "https://www.restaurant-alto.de/", "wheelchair": "yes"}}, {"type": "node", "id": 2283633584, "lat": 53.0778218, "lon": 8.8068579, "tags": {"amenity": "restaurant", "name": "Achim's Lounge"}}, {"type": "node", "id": 2283633585, "lat": 53.0778116, "lon": 8.8003558, "tags": {"amenity": "restaurant", "contact:facebook": "https://www.facebook.com/MAbremenschlachte/", "email": "bremen@mazeit.de", "fax": "+49 421 16337138", "name": "Ma", "opening_hours": "Mo-Fr 09:00-01:00, Sa,Su,PH 09:00-02:00", "phone": "+49 421 16337137", "website": "https://mazeit.de/"}}, {"type": "node", "id": 2283633586, "lat": 53.0777601, "lon": 8.800474, "tags": {"amenity": "restaurant", "cuisine": "mediterranean", "name": "Camarillo", "opening_hours": "Mo-Fr 16:00+, Sa,Su,PH 11:00+", "website": "http://www.camarillo-bremen.de/", "wheelchair": "limited"}}, {"type": "node", "id": 2283633589, "lat": 53.0782881, "lon": 8.8064539, "tags": {"addr:city": "Bremen", "addr:housenumber": "8", "addr:postcode": "28195", "addr:street": "Pelzerstra\u00dfe", "amenity": "restaurant", "cuisine": "burger", "name": "1885 Die Burger", "opening_hours": "Mo-Fr 12:00-20:00; Sa 12:00-21:00", "organic": "yes", "phone": "+49 421 30178885", "website": "http://www.1885.me/", "wheelchair": "limited"}}, {"type": "node", "id": 2283633667, "lat": 53.0747665, "lon": 8.8054311, "tags": {"amenity": "restaurant", "name": "L'Oliva", "website": "http://www.restaurantloliva.com/"}}, {"type": "node", "id": 2283633903, "lat": 53.0777705, "lon": 8.8069359, "tags": {"addr:housenumber": "8", "addr:postcode": "28195", "addr:street": "Kreyenstra\u00dfe", "amenity": "restaurant", "cuisine": "italian", "level": "0", "name": "Eataliano", "wheelchair": "yes"}}, {"type": "node", "id": 2334114202, "lat": 53.0751164, "lon": 8.8094382}, {"type": "node", "id": 2348516280, "lat": 53.0792488, "lon": 8.8032274, "tags": {"addr:city": "Bremen", "addr:country": "DE", "addr:housenumber": "18", "addr:postcode": "28195", "addr:street": "Ansgaritorstra\u00dfe", "amenity": "restaurant", "check_date:opening_hours": "2022-07-10", "contact:fax": "+49 421 16386918", "contact:phone": "+49 421 16386916", "contact:website": "http://www.sakurabremen.com/", "cuisine": "sushi", "indoor_seating": "yes", "name": "Sakura Sushi", "old_name": "La Bottega da Mario", "opening_hours": "Mo-Su 11:30-15:00,17:00-22:00", "outdoor_seating": "no", "smoking": "no", "toilets:wheelchair": "no", "wheelchair": "limited"}}, {"type": "node", "id": 2362568255, "lat": 53.0768633, "lon": 8.8041744, "tags": {"amenity": "restaurant", "contact:phone": "+49 421 24357666", "contact:website": "http://www.woyton-nord.de/", "indoor_seating": "yes", "internet_access": "wlan", "name": "Woyton", "opening_hours": "Sa 10:00-18:00; Mo-Fr 08:00-18:00", "operator": "Woyton Bremen Gastro GmbH", "outdoor_seating": "yes", "toilets": "yes", "toilets:wheelchair": "yes", "wheelchair": "yes"}}, {"type": "node", "id": 2480329069, "lat": 53.0787194, "lon": 8.8027347, "tags": {"amenity": "restaurant", "name": "Salvador", "opening_hours": "Mo-Th 11:30-23:00; Fr,Sa 11:30-24:00"}}, {"type": "node", "id": 2621252038, "lat": 53.0726836, "lon": 8.8097585}, {"type": "node", "id": 2621252100, "lat": 53.0728335, "lon": 8.8098, "tags": {"addr:city": "Bremen", "addr:country": "DE", "addr:housenumber": "13", "addr:postcode": "28195", "addr:street": "Schnoor", "alt_name": "Schr\u00f6ters Leib und Seele", "amenity": "restaurant", "contact:phone": "+49 421 326677", "contact:website": "https://schroeters-schnoor.de/", "diet:vegan": "yes", "diet:vegetarian": "yes", "indoor_seating": "yes", "name": "Schr\u00f6ter's Leib & Seele", "opening_hours": "Tu-Sa 12:00-14:45,18:00-23:00", "outdoor_seating": "yes", "wheelchair": "no"}}, {"type": "node", "id": 2621252108, "lat": 53.0728587, "lon": 8.8097362, "tags": {"addr:city": "Bremen", "addr:country": "DE", "addr:housenumber": "14", "addr:postcode": "28195", "addr:street": "Schnoor", "amenity": "restaurant", "name": "Daniel's Burger Lobster & More", "opening_hours": "Tu-Th 17:00+; Fr,Sa 12:00+"}}, {"type": "node", "id": 2639975893, "lat": 53.0778975, "lon": 8.8069705, "tags": {"addr:city": "Bremen", "addr:country": "DE", "addr:housenumber": "1", "addr:postcode": "28195", "addr:street": "Carl-Ronning-Stra\u00dfe", "amenity": "restaurant", "contact:phone": "+49 421 15555", "contact:website": "https://beckshaus.de/", "indoor_seating": "yes", "name": "Achims Beck's Haus", "opening_hours": "Mo-Sa 10:00+", "outdoor_seating": "yes", "wheelchair": "no", "wheelchair:description": "Leider keine Rampe. Etwa 3 - 4 Stufen zum Eingang (Tresen + Stehtische). Zu den Sitzpl\u00e4tzen noch mehr Stufen."}}, {"type": "node", "id": 2664380852, "lat": 53.0775286, "lon": 8.8091325, "tags": {"addr:city": "Bremen", "addr:country": "DE", "addr:housenumber": "15", "addr:postcode": "28195", "addr:street": "Katharinenstra\u00dfe", "alt_name": "Fischrestaurant Knurrhahn", "amenity": "restaurant", "cuisine": "seafood", "diet:vegetarian": "no", "name": "Knurrhahn", "opening_hours": "Mo-We 11:00-19:00; Th-Sa 11:00-20:00; Su 11:00-16:00", "website": "http://www.fischrestaurant-knurrhahn.de/", "wheelchair": "limited", "wheelchair:description": "Man kommt ohne Hilfe ins Restaurant. Die Toiletten sind jedoch nicht Rollstuhlgerecht.", "wikidata": "Q41708738"}}, {"type": "node", "id": 2752194414, "lat": 53.0775509, "lon": 8.8055117, "tags": {"amenity": "restaurant", "level": "3", "name": "LeBuffet", "opening_hours": "Mo-Sa 09:30-18:00", "operator": "Karstadt"}}, {"type": "node", "id": 3105143858, "lat": 53.0792139, "lon": 8.8075372, "tags": {"addr:city": "Bremen", "addr:housenumber": "135", "addr:postcode": "28195", "addr:street": "Am Wall", "amenity": "restaurant", "contact:phone": "+49 421 51705608", "contact:website": "https://www.muchosmas.eu/", "cuisine": "spanish", "name": "Muchos M\u00e1s", "opening_hours": "Mo-Th 12:00-15:30,17:30+; Fr-Su 12:00+", "wheelchair": "no"}}, {"type": "node", "id": 3119051754, "lat": 53.0761378, "lon": 8.8068805, "tags": {"addr:city": "Bremen", "addr:country": "DE", "addr:housenumber": "1", "addr:postcode": "28195", "addr:street": "Am Markt", "amenity": "restaurant", "name": "John Benton", "opening_hours": "Su-Th 11:00-18:00; Fr,Sa 11:00-20:00", "phone": "+49 421 323035", "toilets:wheelchair": "no", "website": "https://www.johnbenton-bremen.de/"}}, {"type": "node", "id": 3237246862, "lat": 53.0767254, "lon": 8.809829, "tags": {"entrance": "main"}}, {"type": "node", "id": 3237246899, "lat": 53.0768209, "lon": 8.8098965}, {"type": "node", "id": 3237246900, "lat": 53.0768336, "lon": 8.8098734}, {"type": "node", "id": 3281269054, "lat": 53.0732774, "lon": 8.8089694, "tags": {"addr:city": "Bremen", "addr:country": "DE", "addr:housenumber": "5", "addr:postcode": "28195", "addr:street": "Am Landherrnamt", "amenity": "restaurant", "name": "Argana", "opening_hours": "Tu-Th 12:00-21:00; Fr 12:00-22:00; Sa,Su 15:00-22:00"}}, {"type": "node", "id": 3339854377, "lat": 53.07922, "lon": 8.7980543, "tags": {"addr:city": "Bremen", "addr:housenumber": "2-3", "addr:postcode": "28195", "addr:street": "Fangturm", "amenity": "restaurant", "capacity": "30", "contact:phone": "+49 421 16523666", "contact:website": "http://www.sakurabremen.com/", "cuisine": "Kaiten-Sushi", "name": "Sakura Sushi", "opening_hours": "Mo-Sa 11:30-15:00, Mo-Su 17:30-23:00; PH 17:30-23:00", "smoking": "no", "wheelchair": "limited"}}, {"type": "node", "id": 3426715475, "lat": 53.0784603, "lon": 8.8058679, "tags": {"addr:city": "Bremen", "addr:postcode": "28195", "addr:street": "Papenstra\u00dfe", "amenity": "restaurant", "level": "1", "name": "Dinea", "phone": "+49 421 3095310", "wheelchair": "yes"}}, {"type": "node", "id": 3613030393, "lat": 53.0721113, "lon": 8.8148009, "tags": {"amenity": "restaurant", "contact:phone": "+49 421 98885555", "contact:website": "https://www.antonios-lavilla-bremen.de/", "name": "Antonios La Villa", "opening_hours": "Mo,Tu,Th,Fr 12:00-14:00,18:00+; Sa,Su 18:00+; We off", "wheelchair": "no"}}, {"type": "node", "id": 3775199087, "lat": 53.0752254, "lon": 8.8096438}, {"type": "node", "id": 3777480055, "lat": 53.0751017, "lon": 8.809616}, {"type": "node", "id": 3777480056, "lat": 53.075106, "lon": 8.8095643}, {"type": "node", "id": 3777480162, "lat": 53.075116, "lon": 8.809443, "tags": {"description": "Raumtrennung aus Glas", "door": "yes", "level": "0"}}, {"type": "node", "id": 3777480164, "lat": 53.0751266, "lon": 8.8093153}, {"type": "node", "id": 3777480168, "lat": 53.0751399, "lon": 8.8093184, "tags": {"door": "manual", "level": "1"}}, {"type": "node", "id": 3777480169, "lat": 53.0751412, "lon": 8.8093187, "tags": {"entrance": "yes", "level": "0"}}, {"type": "node", "id": 3777480185, "lat": 53.0752172, "lon": 8.8093362}, {"type": "node", "id": 3777480187, "lat": 53.0752256, "lon": 8.8093381, "tags": {"entrance": "yes", "level": "0"}}, {"type": "node", "id": 3777480191, "lat": 53.0752732, "lon": 8.8096173}, {"type": "node", "id": 3777480192, "lat": 53.075273, "lon": 8.809349}, {"type": "node", "id": 3777480193, "lat": 53.075291, "lon": 8.8093531}, {"type": "node", "id": 3788897496, "lat": 53.0751039, "lon": 8.8095895, "tags": {"door": "yes", "repeat_on": "1;0.5"}}, {"type": "node", "id": 3788897502, "lat": 53.0751132, "lon": 8.8094774}, {"type": "node", "id": 3788897504, "lat": 53.0751154, "lon": 8.80945}, {"type": "node", "id": 3788897507, "lat": 53.0751176, "lon": 8.8094239}, {"type": "node", "id": 3788897509, "lat": 53.07512, "lon": 8.809395, "tags": {"door": "yes", "level": "-1"}}, {"type": "node", "id": 3788897511, "lat": 53.075121, "lon": 8.8096204}, {"type": "node", "id": 3788897512, "lat": 53.075123, "lon": 8.8093586}, {"type": "node", "id": 3788897514, "lat": 53.0751251, "lon": 8.8093329, "tags": {"door": "yes", "level": "0"}}, {"type": "node", "id": 3788897540, "lat": 53.0751538, "lon": 8.8093216}, {"type": "node", "id": 3788897549, "lat": 53.0751642, "lon": 8.8096303}, {"type": "node", "id": 3788897551, "lat": 53.0751728, "lon": 8.8096321}, {"type": "node", "id": 3788897555, "lat": 53.0751827, "lon": 8.8093282}, {"type": "node", "id": 3788897557, "lat": 53.0751885, "lon": 8.8093296, "tags": {"door": "yes", "level": "1"}}, {"type": "node", "id": 3788897558, "lat": 53.0751896, "lon": 8.8096359}, {"type": "node", "id": 3788897560, "lat": 53.0751952, "lon": 8.8093311}, {"type": "node", "id": 3788897563, "lat": 53.0752014, "lon": 8.8096385}, {"type": "node", "id": 3788897566, "lat": 53.0752145, "lon": 8.8093355}, {"type": "node", "id": 3788897567, "lat": 53.0752176, "lon": 8.809642}, {"type": "node", "id": 3788897573, "lat": 53.0752423, "lon": 8.8093419}, {"type": "node", "id": 3788897578, "lat": 53.0752571, "lon": 8.8093453}, {"type": "node", "id": 3788897580, "lat": 53.0752581, "lon": 8.809651}, {"type": "node", "id": 3788897596, "lat": 53.0752688, "lon": 8.809348}, {"type": "node", "id": 3788897606, "lat": 53.0752742, "lon": 8.809603}, {"type": "node", "id": 3788897607, "lat": 53.0752751, "lon": 8.8095886}, {"type": "node", "id": 3788897609, "lat": 53.0752759, "lon": 8.8095757}, {"type": "node", "id": 3788897611, "lat": 53.0752767, "lon": 8.8095648}, {"type": "node", "id": 3788897613, "lat": 53.0752783, "lon": 8.80954}, {"type": "node", "id": 3788897617, "lat": 53.0752806, "lon": 8.8093507, "tags": {"entrance": "yes", "level": "0"}}, {"type": "node", "id": 3788897618, "lat": 53.0752813, "lon": 8.809493}, {"type": "node", "id": 3788897620, "lat": 53.0752837, "lon": 8.8094569}, {"type": "node", "id": 3788897621, "lat": 53.0752868, "lon": 8.8094137}, {"type": "node", "id": 3788897622, "lat": 53.0752887, "lon": 8.8093853}, {"type": "node", "id": 3788897623, "lat": 53.0752895, "lon": 8.8093736}, {"type": "node", "id": 3914046585, "lat": 53.0736462, "lon": 8.8125946, "tags": {"addr:city": "Bremen", "addr:country": "DE", "addr:housenumber": "201", "addr:postcode": "28195", "addr:street": "Am Wall", "amenity": "restaurant", "contact:email": "kontakt@fishermans-bremen.de", "contact:fax": "+49 421 33066162", "contact:phone": "+49 421 33066161", "contact:website": "https://www.fishermans-bremen.de/", "cuisine": "seafood", "indoor_seating": "yes", "internet_access": "wlan", "name": "Fisherman's Seafood", "opening_hours": "PH,Su,Mo off; Tu-Th 11:00-15:00,17:00-21:00; Fr,Sa 11:00-15:00,17:00-22:00", "opening_hours:kitchen": "Mo-Th 11:00-14:30,17:00-19:30; Fr-Sa 11:00-14:30,17:00-20:30; Su,PH off", "outdoor_seating": "no", "smoking": "no", "wheelchair": "yes"}}, {"type": "node", "id": 4016643203, "lat": 53.0777689, "lon": 8.8085691, "tags": {"addr:city": "Bremen", "addr:country": "DE", "addr:housenumber": "7", "addr:postcode": "28195", "addr:street": "Katharinenklosterhof", "amenity": "restaurant", "contact:website": "https://www.soulm8.de/", "name": "Soulm8", "opening_hours": "We-Mo 12:00-15:00,17:00-22:00"}}, {"type": "node", "id": 4020418643, "lat": 53.0757073, "lon": 8.8123484, "tags": {"amenity": "restaurant", "contact:phone": "+49 421 98504707", "contact:website": "http://www.restaurant-notos.de", "cuisine": "greek", "name": "N\u00f3tos", "opening_hours": "Tu-Sa 11:30-14:00, Tu-Su 17:30-23:00; Mo off", "wheelchair": "no"}}, {"type": "node", "id": 4181958327, "lat": 53.0773906, "lon": 8.8031342, "tags": {"addr:city": "Bremen", "addr:country": "DE", "addr:housenumber": "7", "addr:postcode": "28195", "addr:street": "Pieperstra\u00dfe", "amenity": "restaurant", "cuisine": "italian", "diet:vegetarian": "no", "indoor_seating": "yes", "name": "Hostaria Tano", "opening_hours:signed": "no", "outdoor_seating": "yes", "phone": "+49 421 17836815", "toilets:wheelchair": "yes", "wheelchair": "yes"}}, {"type": "node", "id": 4358800544, "lat": 53.0780157, "lon": 8.8013441, "tags": {"amenity": "restaurant", "cuisine": "indian", "currency:BCH": "yes", "diet:halal": "no", "diet:kosher": "no", "diet:vegan": "yes", "diet:vegetarian": "yes", "name": "Shalimar", "opening_hours": "Mo-Sa 12:00-15:00, Mo-Su 17:00-23:00, Su 17:00-23:00", "phone": "+49 421 44968022", "website": "http://restaurantshalimar.de", "wheelchair": "no"}}, {"type": "node", "id": 4567956569, "lat": 53.073581, "lon": 8.8123758, "tags": {"amenity": "restaurant", "contact:email": "contact@plantenkoek.de", "contact:phone": "+49 421 17216293", "contact:website": "https://www.plantenkoek.de/", "cuisine": "variable", "diet:vegan": "only", "indoor_seating": "yes", "name": "Plantenk\u00f6\u00f6k", "opening_hours": "We-Sa 12:00-15:00,17:00-21:00; Su-Tu off", "outdoor_seating": "no", "wheelchair": "yes"}}, {"type": "node", "id": 4665276622, "lat": 53.0767783, "lon": 8.798707, "tags": {"addr:city": "Bremen", "addr:country": "DE", "addr:housenumber": "21", "addr:postcode": "28199", "addr:street": "Teerhof", "amenity": "restaurant", "contact:phone": "+49 421 49952596", "indoor_seating": "yes", "name": "Tau", "opening_hours": "Tu-Su 13:00-23:00", "operator": "Tau GbR", "outdoor_seating": "yes", "wheelchair": "yes"}}, {"type": "node", "id": 4687272231, "lat": 53.0786476, "lon": 8.8011714, "tags": {"addr:city": "Bremen", "addr:housenumber": "24-26", "addr:postcode": "28195", "addr:street": "Hutfilterstra\u00dfe", "amenity": "restaurant", "diet:vegetarian": "yes", "indoor_seating": "yes", "level": "2", "name": "Bel Etage", "opening_hours": "Mo-Fr 11:30-14:30", "operator": "sjs catering + management GmbH", "outdoor_seating": "no", "self_service": "yes", "smoking": "no", "wheelchair": "yes"}}, {"type": "node", "id": 4884069615, "lat": 53.0756034, "lon": 8.8067973, "tags": {"addr:city": "Bremen", "addr:housenumber": "13", "addr:street": "Am Markt", "amenity": "restaurant", "contact:phone": "+49 421 51421250", "contact:website": "http://www.feines-hat-tradition.de/", "name": "Feines 1783", "outdoor_seating": "yes", "wheelchair": "no"}}, {"type": "node", "id": 4948573203, "lat": 53.0752193, "lon": 8.8028316, "tags": {"addr:city": "Bremen", "addr:country": "DE", "addr:housenumber": "Anleger 1", "addr:postcode": "28195", "addr:street": "Schlachte", "alt_name": "Admiral Nelson", "amenity": "restaurant", "contact:email": "info@admiral-nelson.de", "contact:phone": "+49 421 3649984", "contact:website": "http://www.admiral-nelson.de", "cuisine": "pancake", "indoor_seating": "yes", "loc_name": "Pfannkuchenschiff", "name": "Pannekoekschip", "opening_hours": "Mo-Fr 12:00-20:00; Sa 11:00-21:00; Su 12:00-20:00", "outdoor_seating": "yes", "wheelchair": "limited"}}, {"type": "node", "id": 5021563660, "lat": 53.0768137, "lon": 8.8080306, "tags": {"addr:housenumber": "6", "addr:street": "Unser Lieben Frauen Kirchhof", "amenity": "restaurant", "brand": "Cafe & Bar Celona", "brand:wikidata": "Q1025499", "contact:fax": "+49 421 22378428", "contact:phone": "+49 421 22378427", "contact:website": "https://celona.de/mein-celona/details/cafe-bar-celona-bremen-liebfrauenkirchhof", "indoor_seating": "yes", "name": "Cafe & Bar Celona", "opening_hours": "Mo-Th 08:00-01:00; Fr-Sa 08:00-02:00; Su 09:00-01:00", "outdoor_seating": "yes", "wheelchair": "limited"}}, {"type": "node", "id": 5386173749, "lat": 53.0783239, "lon": 8.8097304, "tags": {"amenity": "restaurant", "contact:phone": "+49 421 33652065", "contact:website": "http://www.restaurant-medio.de/", "name": "Medio", "opening_hours": "Tu-Fr 12:00-15:00,18:00+; Sa 12:00+; Su,Mo,PH off", "wheelchair": "yes"}}, {"type": "node", "id": 5982626030, "lat": 53.0728039, "lon": 8.8096925}, {"type": "node", "id": 5992339356, "lat": 53.0752849, "lon": 8.8114817, "tags": {"amenity": "restaurant", "contact:email": "saharyousofi1994@gmail.com", "contact:phone": "+49 421 20077108", "contact:website": "https://kabul-restaurant.eatbu.com", "cuisine": "afghan", "name": "Kabul", "opening_hours": "Th-Tu 12:00-22:00;", "wheelchair": "yes"}}, {"type": "node", "id": 6020624944, "lat": 53.0748901, "lon": 8.8031123, "tags": {"addr:city": "Bremen", "addr:country": "DE", "addr:housenumber": "1a", "addr:postcode": "28195", "addr:street": "Schlachte", "addr:unit": "Martinianleger", "amenity": "restaurant", "email": "info@alex-das-schiff.de", "floating": "yes", "name": "Alexander von Humboldt \u2013 Das Schiff", "opening_hours": "11:30-22:00", "operator": "Heiko Rataj Veranstaltungsservice", "phone": "+49 421 38039699", "website": "https://alex-das-schiff.de/"}}, {"type": "node", "id": 6205020497, "lat": 53.0726918, "lon": 8.8100535, "tags": {"amenity": "restaurant", "check_date:opening_hours": "2023-03-21", "contact:phone": "+49 421 326621", "contact:website": "http://www.toshi-do.de/", "cuisine": "sushi", "name": "Toshi-do", "opening_hours": "Tu,We 18:00-23:00; Th,Fr 12:00-15:00,18:00-23:00; Sa 18:00-23:00", "wheelchair": "limited"}}, {"type": "node", "id": 7724480157, "lat": 53.0767629, "lon": 8.8109268, "tags": {"amenity": "restaurant", "capacity": "10", "check_date:opening_hours": "2022-12-17", "cuisine": "seafood", "description": "The shop opens early, but food usually is not served before 11:00.", "name": "F.L. Bodes", "opening_hours": "Tu-Th 09:00-17:00; Fr 08:00-17:00; Sa 08:00-14:00", "website": "http://www.bodes.de/", "wheelchair": "limited"}}, {"type": "node", "id": 7773016987, "lat": 53.0795601, "lon": 8.8043497, "tags": {"addr:city": "Bremen", "addr:housenumber": "16", "addr:postcode": "28195", "addr:street": "Spitzenkiel", "amenity": "restaurant", "cuisine": "thai", "indoor_seating": "yes", "name": "Bai Kaprao", "opening_hours": "Mo-Fr 17:00-22:00; Sa 12:00-22:00; PH,Su off", "outdoor_seating": "no", "website": "https://bai-kaprao-thai-restaurant.business.site/"}}, {"type": "node", "id": 7783279426, "lat": 53.0795241, "lon": 8.8044772, "tags": {"amenity": "restaurant", "contact:phone": "+49 421 1692869", "contact:website": "http://www.010101sys.com/casamario/", "cuisine": "italian", "indoor_seating": "yes", "name": "Casa Mario", "opening_hours": "Mo-Fr 11:00-15:00,17:00-22:00; Sa 11:00-22:00", "outdoor_seating": "no"}}, {"type": "node", "id": 7801818103, "lat": 53.0759929, "lon": 8.8100931, "tags": {"amenity": "restaurant", "contact:mobile": "+49 176 70925608", "contact:phone": "+49 421 67317293", "contact:website": "http://noras-deli.de/", "diet:vegan": "yes", "diet:vegetarian": "only", "name": "Nora's Deli", "opening_hours": "Tu-Fr 12:00-15:00", "organic": "yes", "takeaway": "yes"}}, {"type": "node", "id": 8779678616, "lat": 53.0760274, "lon": 8.8104296, "tags": {"amenity": "restaurant", "contact:mobile": "+49 157 71217486", "contact:website": "http://www.lapiconera.de/", "cuisine": "tapas", "name": "Taperia La Piconera", "opening_hours": "Tu,We 11:00-20:00; Th-Sa 11:00-22:00", "operator": "Taperia La Piconera GmbH & Co.KG"}}, {"type": "node", "id": 10241958864, "lat": 53.0728165, "lon": 8.8098541, "tags": {"amenity": "restaurant", "name": "Daniel's", "opening_hours": "Tu-Th 17:00-21:30; Fr,Sa 12:00-21:30; Su,Mo off"}}, {"type": "node", "id": 10542985281, "lat": 53.0806487, "lon": 8.7970609, "tags": {"amenity": "restaurant", "cuisine": "asian", "name": "City Asian Food", "opening_hours": "Mo-Sa 11:30-15:00, Mo-Su 17:00-20:30; PH,Su off"}}, {"type": "way", "id": 256459803, "nodes": [1765932168, 5982626030, 1545731817, 1545732058, 2621252038, 1765932052, 1765932114, 1765932116, 1765932120, 1765932131, 1765932128, 1765932151, 1765932132, 1765932149, 1765932154, 1765932162, 1765932158, 1765932161, 1765932164, 1765932170, 1765932166, 1765932195, 1765932192, 1765932197, 1765932168], "tags": {"addr:housenumber": "34-36", "addr:street": "Schnoor", "alt_name": "Beck's im Schnoor", "amenity": "restaurant", "indoor_seating": "yes", "name": "Beck's in'n Snoor", "opening_hours": "Th-Su 12:00-21:30; We 16:00-21:30", "outdoor_seating": "yes", "phone": "+49 421 323130", "website": "https://www.becks-im-schnoor.de/", "wheelchair": "no"}}, {"type": "way", "id": 317457165, "nodes": [1269960809, 1269960786, 3237246900, 3237246899, 1269960750, 1269960793, 3237246862, 1269960809], "tags": {"addr:city": "Bremen", "addr:country": "DE", "addr:housenumber": "16", "addr:postcode": "28195", "addr:street": "Domshof", "amenity": "restaurant", "brand": "ALEX", "brand:wikidata": "Q18018122", "diet:vegan": "yes", "diet:vegetarian": "yes", "indoor_seating": "yes", "name": "ALEX", "opening_hours": "Mo-Th 08:30-23:00; Fr,Sa 08:30-24:00; PH,Su 09:00-23:00", "outdoor_seating": "yes", "toilets:wheelchair": "no", "website": "https://www.dein-alex.de/", "wheelchair": "limited", "wheelchair:description": "Das Alex Hanseatenhof1 ist barrierefrei"}}, {"type": "way", "id": 374371057, "nodes": [3777480191, 3788897606, 1760028056, 3788897607, 3788897609, 1760028059, 3788897611, 3788897613, 3788897618, 2176238450, 3788897620, 3788897621, 3788897622, 3788897623, 2188970252, 1760028083, 3777480193, 3788897617, 3777480192, 3788897596, 3788897578, 3788897573, 3777480187, 3777480185, 3788897566, 3788897560, 3788897557, 3788897555, 3788897540, 3777480169, 3777480168, 3777480164, 3788897514, 3788897512, 3788897509, 3788897507, 2334114202, 3777480162, 3788897504, 3788897502, 3777480056, 3788897496, 3777480055, 3788897511, 1760027906, 1760027911, 3788897549, 3788897551, 1760027955, 3788897558, 1760027966, 3788897563, 1760027980, 3788897567, 1760027994, 3775199087, 1760028014, 1760028019, 1760028022, 3788897580, 1760028045, 3777480191], "tags": {"addr:city": "Bremen", "addr:country": "DE", "addr:housenumber": "6", "addr:postcode": "28195", "addr:street": "Domsheide", "amenity": "restaurant", "catering": "yes", "contact:facebook": "https://www.facebook.com/Theatro.Bremen", "description": "Intermezzo - Caf\u00e9 - Bistro in der Glocke", "indoor": "yes", "level": "0", "name": "Intermezzo", "opening_hours": "\"immer zwei Stunden vor Veranstaltungsbeginn des Konzerthauses Glocke\"", "phone": "+49 421 3 36 68 88", "website": "http://www.intermezzo-restaurant.de/", "wheelchair": "yes"}}]}