{"version": 0.6, "generator": "Overpass API 0.7.60.2 e4cf9f7a", "osm3s": {"timestamp_osm_base": "2023-04-30T01:08:04Z", "copyright": "The data included in this document is from www.openstreetmap.org. The data is made available under ODbL."}, "elements": [{"type": "node", "id": 295150984, "lat": 53.1658648, "lon": 8.6415593, "tags": {"amenity": "restaurant", "name": "Pegasos"}}, {"type": "node", "id": 359897304, "lat": 53.1619772, "lon": 8.638745, "tags": {"amenity": "restaurant", "cuisine": "german", "name": "Bootshausgastst\u00e4tte VWV"}}, {"type": "node", "id": 830589194, "lat": 53.1606614, "lon": 8.6793467, "tags": {"amenity": "restaurant", "cuisine": "polish", "name": "Murkens Krug zur F\u00e4hre", "old_name": "Alma", "opening_hours": "Mo-We 12:00-22:00, Th off; Fr 12:00-22:00; Sa-Su 11:00-22:00", "operator": "Katarzyna Szkudlarska", "phone": "+49 421 69003079", "website": "http://murkens-krug-zur-faehre.de/"}}, {"type": "node", "id": 843220843, "lat": 53.1286268, "lon": 8.6532232}, {"type": "node", "id": 843220850, "lat": 53.1288061, "lon": 8.6532456}, {"type": "node", "id": 843220852, "lat": 53.1287027, "lon": 8.6530863}, {"type": "node", "id": 3197944562, "lat": 53.1287311, "lon": 8.6533809}, {"type": "node", "id": 3197944564, "lat": 53.1287578, "lon": 8.6533326}, {"type": "node", "id": 3201229902, "lat": 53.1579644, "lon": 8.6931584, "tags": {"addr:city": "Bremen", "addr:housenumber": "70", "addr:postcode": "28719", "addr:street": "Lesumbroker Landstra\u00dfe", "amenity": "restaurant", "name": "Smidt's", "opening_hours": "Tu-Su 12:00-22:00", "phone": "+49 421 9493430", "website": "http://www.smidts.de/"}}, {"type": "node", "id": 3366848550, "lat": 53.1664561, "lon": 8.6385037}, {"type": "node", "id": 8511266368, "lat": 53.1664891, "lon": 8.6383853}, {"type": "node", "id": 8511266369, "lat": 53.1663227, "lon": 8.6384001}, {"type": "node", "id": 8511266370, "lat": 53.1663557, "lon": 8.6382818}, {"type": "way", "id": 70691851, "nodes": [3197944564, 843220850, 843220852, 843220843, 3197944562, 3197944564], "tags": {"addr:city": "Bremen", "addr:country": "DE", "addr:housenumber": "36", "addr:postcode": "28719", "addr:street": "Mittelsb\u00fcren", "amenity": "restaurant", "biergarten": "yes", "email": "info@an-der-moorlosen-kirche.de", "fax": "+49 421 69207415", "name": "An der Moorlosen Kirche", "opening_hours": "Apr-Oct: Tu-Su 11:00-21:00;Nov-Mar: We-Sa 11:00-19:30; Nov-Mar: Su,PH 09:30-19:30", "operator": "Christa Enter", "phone": "+49 421 69207414", "website": "https://www.an-der-moorlosen-kirche.de/", "wheelchair": "limited"}}, {"type": "way", "id": 916378816, "nodes": [8511266368, 3366848550, 8511266369, 8511266370, 8511266368], "tags": {"addr:city": "Bremen", "addr:housenumber": "108", "addr:postcode": "28759", "addr:street": "Friedrich-Humbert-Stra\u00dfe", "amenity": "restaurant", "building": "yes", "cuisine": "pizza", "delivery": "no", "name": "Pizzeria Pinocchio", "phone": "+49 421 62638091", "website": "http://pinocchio-bremen.de/"}}]}